"","postal_code","city","is_downtown","country"
"1",10171,"New York","false","USA"
"2",10110,"New York","true","USA"
"3",10282,"New York","false","USA"
"4",10040,"New York","false","USA"
"5",11207,"New York","false","USA"
"6",10456,"New York","false","USA"
"7",11417,"New York","false","USA"
"8",11104,"New York","false","USA"
"9",10024,"New York","false","USA"
"10",11212,"New York","false","USA"
"11",11694,"New York","false","USA"
"12",11415,"New York","false","USA"
"13",11209,"New York","false","USA"
"14",11360,"New York","false","USA"
"15",11451,"New York","false","USA"
"16",10026,"New York","false","USA"
"17",11373,"New York","false","USA"
"18",10162,"New York","false","USA"
"19",11096,"New York","false","USA"
"20",11355,"New York","false","USA"
"21",10168,"New York","true","USA"
"22",11235,"New York","false","USA"
"23",10459,"New York","false","USA"
"24",11425,"New York","false","USA"
"25",10170,"New York","true","USA"
"26",10032,"New York","false","USA"
"27",10152,"New York","false","USA"
"28",11005,"New York","false","USA"
"29",11429,"New York","false","USA"
"30",11223,"New York","false","USA"
"31",10020,"New York","true","USA"
"32",11103,"New York","false","USA"
"33",11412,"New York","false","USA"
"34",7620,"New York","false","USA"
"35",10018,"New York","true","USA"
"36",10153,"New York","false","USA"
"37",10030,"New York","false","USA"
"38",10044,"New York","false","USA"
"39",10165,"New York","true","USA"
"40",10128,"New York","false","USA"
"41",10271,"New York","true","USA"
"42",10111,"New York","true","USA"
"43",11416,"New York","false","USA"
"44",11219,"New York","false","USA"
"45",10029,"New York","false","USA"
"46",10280,"New York","false","USA"
"47",10112,"New York","true","USA"
"48",11220,"New York","false","USA"
"49",11509,"New York","false","USA"
"50",7020,"New York","false","USA"
"51",10013,"New York","false","USA"
"52",10075,"New York","false","USA"
"53",10199,"New York","false","USA"
"54",10037,"New York","false","USA"
"55",10115,"New York","false","USA"
"56",10279,"New York","false","USA"
"57",10471,"New York","false","USA"
"58",11204,"New York","false","USA"
"59",11239,"New York","false","USA"
"60",11233,"New York","false","USA"
"61",11421,"New York","false","USA"
"62",11693,"New York","false","USA"
"63",11020,"New York","false","USA"
"64",10009,"New York","false","USA"
"65",10177,"New York","true","USA"
"66",10454,"New York","false","USA"
"67",10173,"New York","false","USA"
"68",10023,"New York","false","USA"
"69",10006,"New York","true","USA"
"70",10010,"New York","false","USA"
"71",10310,"New York","false","USA"
"72",11221,"New York","false","USA"
"73",10455,"New York","false","USA"
"74",11358,"New York","false","USA"
"75",10473,"New York","false","USA"
"76",10028,"New York","false","USA"
"77",11217,"New York","false","USA"
"78",11230,"New York","false","USA"
"79",11363,"New York","false","USA"
"80",11369,"New York","false","USA"
"81",11413,"New York","false","USA"
"82",11418,"New York","false","USA"
"83",11427,"New York","false","USA"
"84",11003,"New York","false","USA"
"85",10039,"New York","false","USA"
"86",11225,"New York","false","USA"
"87",11364,"New York","false","USA"
"88",10278,"New York","false","USA"
"89",10154,"New York","false","USA"
"90",10311,"New York","false","USA"
"91",10307,"New York","false","USA"
"92",11102,"New York","false","USA"
"93",10452,"New York","false","USA"
"94",11218,"New York","false","USA"
"95",10025,"New York","false","USA"
"96",11351,"New York","false","USA"
"97",11109,"New York","false","USA"
"98",10308,"New York","false","USA"
"99",11424,"New York","false","USA"
"100",11206,"New York","false","USA"
"101",11216,"New York","false","USA"
"102",10012,"New York","false","USA"
"103",10034,"New York","false","USA"
"104",10035,"New York","false","USA"
"105",10457,"New York","false","USA"
"106",11354,"New York","false","USA"
"107",7670,"New York","false","USA"
"108",10306,"New York","false","USA"
"109",11368,"New York","false","USA"
"110",10017,"New York","true","USA"
"111",10550,"New York","false","USA"
"112",11433,"New York","false","USA"
"113",10119,"New York","false","USA"
"114",10036,"New York","true","USA"
"115",10033,"New York","false","USA"
"116",10463,"New York","false","USA"
"117",10003,"New York","false","USA"
"118",11238,"New York","false","USA"
"119",10469,"New York","false","USA"
"120",11224,"New York","false","USA"
"121",10453,"New York","false","USA"
"122",10803,"New York","false","USA"
"123",11356,"New York","false","USA"
"124",11430,"New York","false","USA"
"125",10069,"New York","false","USA"
"126",11040,"New York","false","USA"
"127",10021,"New York","false","USA"
"128",11208,"New York","false","USA"
"129",10001,"New York","false","USA"
"130",7002,"New York","false","USA"
"131",11370,"New York","false","USA"
"132",11436,"New York","false","USA"
"133",10472,"New York","false","USA"
"134",10172,"New York","true","USA"
"135",11366,"New York","false","USA"
"136",10019,"New York","false","USA"
"137",11375,"New York","false","USA"
"138",10016,"New York","false","USA"
"139",7632,"New York","false","USA"
"140",10031,"New York","false","USA"
"141",11203,"New York","false","USA"
"142",10451,"New York","false","USA"
"143",11106,"New York","false","USA"
"144",11042,"New York","false","USA"
"145",11210,"New York","false","USA"
"146",11411,"New York","false","USA"
"147",10458,"New York","false","USA"
"148",10466,"New York","false","USA"
"149",10314,"New York","false","USA"
"150",10460,"New York","false","USA"
"151",10464,"New York","false","USA"
"152",10467,"New York","false","USA"
"153",10002,"New York","false","USA"
"154",10304,"New York","false","USA"
"155",10305,"New York","false","USA"
"156",10309,"New York","false","USA"
"157",10312,"New York","false","USA"
"158",7202,"New York","false","USA"
"159",11357,"New York","false","USA"
"160",11371,"New York","false","USA"
"161",11372,"New York","false","USA"
"162",11374,"New York","false","USA"
"163",11377,"New York","false","USA"
"164",11419,"New York","false","USA"
"165",11422,"New York","false","USA"
"166",11423,"New York","false","USA"
"167",11205,"New York","false","USA"
"168",11214,"New York","false","USA"
"169",11226,"New York","false","USA"
"170",11228,"New York","false","USA"
"171",11229,"New York","false","USA"
"172",11232,"New York","false","USA"
"173",11237,"New York","false","USA"
"174",11359,"New York","false","USA"
"175",11361,"New York","false","USA"
"176",11362,"New York","false","USA"
"177",11365,"New York","false","USA"
"178",11581,"New York","false","USA"
"179",11428,"New York","false","USA"
"180",11105,"New York","false","USA"
"181",11691,"New York","false","USA"
"182",11434,"New York","false","USA"
"183",11435,"New York","false","USA"
"184",7036,"New York","false","USA"
"185",11001,"New York","false","USA"
"186",11004,"New York","false","USA"
"187",10169,"New York","true","USA"
"188",11559,"New York","false","USA"
"189",11580,"New York","false","USA"
"190",11697,"New York","false","USA"
"191",10167,"New York","true","USA"
"192",10474,"New York","false","USA"
"193",7024,"New York","false","USA"
"194",10103,"New York","false","USA"
"195",10174,"New York","true","USA"
"196",10301,"New York","false","USA"
"197",10302,"New York","false","USA"
"198",10007,"New York","false","USA"
"199",10011,"New York","false","USA"
"200",10038,"New York","false","USA"
"201",10065,"New York","false","USA"
"202",11414,"New York","false","USA"
"203",10475,"New York","false","USA"
"204",10462,"New York","false","USA"
"205",10705,"New York","false","USA"
"206",11213,"New York","false","USA"
"207",10014,"New York","false","USA"
"208",10470,"New York","false","USA"
"209",11021,"New York","false","USA"
"210",11379,"New York","false","USA"
"211",11101,"New York","false","USA"
"212",11426,"New York","false","USA"
"213",10461,"New York","false","USA"
"214",10468,"New York","false","USA"
"215",11211,"New York","false","USA"
"216",10303,"New York","false","USA"
"217",11222,"New York","false","USA"
"218",11378,"New York","false","USA"
"219",11385,"New York","false","USA"
"220",10005,"New York","true","USA"
"221",11692,"New York","false","USA"
"222",11420,"New York","false","USA"
"223",11201,"New York","false","USA"
"224",11234,"New York","false","USA"
"225",11432,"New York","false","USA"
"226",10004,"New York","true","USA"
"227",10022,"New York","false","USA"
"228",10465,"New York","false","USA"
"229",10704,"New York","false","USA"
"230",11231,"New York","false","USA"
"231",11367,"New York","false","USA"
"232",10027,"New York","false","USA"
"233",11236,"New York","false","USA"
"234",11215,"New York","false","USA"
"235",90018,"Los Angeles","false","USA"
"236",90301,"Los Angeles","false","USA"
"237",90071,"Los Angeles","true","USA"
"238",90062,"Los Angeles","false","USA"
"239",90211,"Los Angeles","false","USA"
"240",90089,"Los Angeles","false","USA"
"241",90095,"Los Angeles","false","USA"
"242",91330,"Los Angeles","false","USA"
"243",90043,"Los Angeles","false","USA"
"244",91371,"Los Angeles","false","USA"
"245",91205,"Los Angeles","false","USA"
"246",91506,"Los Angeles","false","USA"
"247",90017,"Los Angeles","true","USA"
"248",90028,"Los Angeles","false","USA"
"249",90014,"Los Angeles","true","USA"
"250",90029,"Los Angeles","false","USA"
"251",90291,"Los Angeles","false","USA"
"252",90063,"Los Angeles","false","USA"
"253",90024,"Los Angeles","false","USA"
"254",90057,"Los Angeles","false","USA"
"255",91402,"Los Angeles","false","USA"
"256",90056,"Los Angeles","false","USA"
"257",91754,"Los Angeles","false","USA"
"258",90304,"Los Angeles","false","USA"
"259",90048,"Los Angeles","false","USA"
"260",90090,"Los Angeles","false","USA"
"261",90405,"Los Angeles","false","USA"
"262",90302,"Los Angeles","false","USA"
"263",91324,"Los Angeles","false","USA"
"264",90033,"Los Angeles","false","USA"
"265",90046,"Los Angeles","false","USA"
"266",90262,"Los Angeles","false","USA"
"267",90026,"Los Angeles","false","USA"
"268",91607,"Los Angeles","false","USA"
"269",90745,"Los Angeles","false","USA"
"270",91501,"Los Angeles","false","USA"
"271",91602,"Los Angeles","false","USA"
"272",90079,"Los Angeles","false","USA"
"273",90094,"Los Angeles","false","USA"
"274",90047,"Los Angeles","false","USA"
"275",90059,"Los Angeles","false","USA"
"276",90067,"Los Angeles","false","USA"
"277",91316,"Los Angeles","false","USA"
"278",90212,"Los Angeles","false","USA"
"279",90001,"Los Angeles","false","USA"
"280",90810,"Los Angeles","false","USA"
"281",91306,"Los Angeles","false","USA"
"282",91340,"Los Angeles","false","USA"
"283",91505,"Los Angeles","false","USA"
"284",90061,"Los Angeles","false","USA"
"285",90068,"Los Angeles","false","USA"
"286",90032,"Los Angeles","false","USA"
"287",90064,"Los Angeles","false","USA"
"288",90006,"Los Angeles","false","USA"
"289",90005,"Los Angeles","false","USA"
"290",90280,"Los Angeles","false","USA"
"291",91206,"Los Angeles","false","USA"
"292",90066,"Los Angeles","false","USA"
"293",90247,"Los Angeles","false","USA"
"294",90813,"Los Angeles","false","USA"
"295",90210,"Los Angeles","false","USA"
"296",90016,"Los Angeles","false","USA"
"297",90404,"Los Angeles","false","USA"
"298",90012,"Los Angeles","false","USA"
"299",93063,"Los Angeles","false","USA"
"300",90044,"Los Angeles","false","USA"
"301",91302,"Los Angeles","false","USA"
"302",90039,"Los Angeles","false","USA"
"303",90069,"Los Angeles","false","USA"
"304",90245,"Los Angeles","false","USA"
"305",90305,"Los Angeles","false","USA"
"306",90021,"Los Angeles","false","USA"
"307",90077,"Los Angeles","false","USA"
"308",90250,"Los Angeles","false","USA"
"309",91403,"Los Angeles","false","USA"
"310",90011,"Los Angeles","false","USA"
"311",91304,"Los Angeles","false","USA"
"312",90073,"Los Angeles","false","USA"
"313",90710,"Los Angeles","false","USA"
"314",91303,"Los Angeles","false","USA"
"315",90004,"Los Angeles","false","USA"
"316",90744,"Los Angeles","false","USA"
"317",91321,"Los Angeles","false","USA"
"318",90292,"Los Angeles","false","USA"
"319",90035,"Los Angeles","false","USA"
"320",91801,"Los Angeles","false","USA"
"321",91335,"Los Angeles","false","USA"
"322",91405,"Los Angeles","false","USA"
"323",90013,"Los Angeles","true","USA"
"324",90034,"Los Angeles","false","USA"
"325",90025,"Los Angeles","false","USA"
"326",90027,"Los Angeles","false","USA"
"327",90008,"Los Angeles","false","USA"
"328",90036,"Los Angeles","false","USA"
"329",90037,"Los Angeles","false","USA"
"330",90058,"Los Angeles","false","USA"
"331",90275,"Los Angeles","false","USA"
"332",90042,"Los Angeles","false","USA"
"333",91343,"Los Angeles","false","USA"
"334",90232,"Los Angeles","false","USA"
"335",91214,"Los Angeles","false","USA"
"336",91803,"Los Angeles","false","USA"
"337",90031,"Los Angeles","false","USA"
"338",90020,"Los Angeles","false","USA"
"339",90003,"Los Angeles","false","USA"
"340",90002,"Los Angeles","false","USA"
"341",90265,"Los Angeles","false","USA"
"342",90290,"Los Angeles","false","USA"
"343",90402,"Los Angeles","false","USA"
"344",90403,"Los Angeles","false","USA"
"345",90502,"Los Angeles","false","USA"
"346",90303,"Los Angeles","false","USA"
"347",90293,"Los Angeles","false","USA"
"348",90504,"Los Angeles","false","USA"
"349",90802,"Los Angeles","false","USA"
"350",90731,"Los Angeles","false","USA"
"351",91105,"Los Angeles","false","USA"
"352",91325,"Los Angeles","false","USA"
"353",91011,"Los Angeles","false","USA"
"354",91307,"Los Angeles","false","USA"
"355",90717,"Los Angeles","false","USA"
"356",91342,"Los Angeles","false","USA"
"357",91311,"Los Angeles","false","USA"
"358",91042,"Los Angeles","false","USA"
"359",91608,"Los Angeles","false","USA"
"360",91040,"Los Angeles","false","USA"
"361",90049,"Los Angeles","false","USA"
"362",91406,"Los Angeles","false","USA"
"363",91504,"Los Angeles","false","USA"
"364",91423,"Los Angeles","false","USA"
"365",91436,"Los Angeles","false","USA"
"366",91364,"Los Angeles","false","USA"
"367",91367,"Los Angeles","false","USA"
"368",91604,"Los Angeles","false","USA"
"369",90248,"Los Angeles","false","USA"
"370",90038,"Los Angeles","false","USA"
"371",90041,"Los Angeles","false","USA"
"372",91352,"Los Angeles","false","USA"
"373",91345,"Los Angeles","false","USA"
"374",90230,"Los Angeles","false","USA"
"375",90501,"Los Angeles","false","USA"
"376",91344,"Los Angeles","false","USA"
"377",90272,"Los Angeles","false","USA"
"378",91605,"Los Angeles","false","USA"
"379",91606,"Los Angeles","false","USA"
"380",91401,"Los Angeles","false","USA"
"381",90045,"Los Angeles","false","USA"
"382",91201,"Los Angeles","false","USA"
"383",91356,"Los Angeles","false","USA"
"384",90065,"Los Angeles","false","USA"
"385",90732,"Los Angeles","false","USA"
"386",91331,"Los Angeles","false","USA"
"387",91601,"Los Angeles","false","USA"
"388",91326,"Los Angeles","false","USA"
"389",91204,"Los Angeles","false","USA"
"390",90015,"Los Angeles","false","USA"
"391",90019,"Los Angeles","false","USA"
"392",91030,"Los Angeles","false","USA"
"393",90007,"Los Angeles","false","USA"
"394",90023,"Los Angeles","false","USA"
"395",91411,"Los Angeles","false","USA"
"396",90010,"Los Angeles","false","USA"
"397",60302,"Chicago","false","USA"
"398",60171,"Chicago","false","USA"
"399",60643,"Chicago","false","USA"
"400",46327,"Chicago","false","USA"
"401",60633,"Chicago","false","USA"
"402",60305,"Chicago","false","USA"
"403",60640,"Chicago","false","USA"
"404",60636,"Chicago","false","USA"
"405",60645,"Chicago","false","USA"
"406",60604,"Chicago","true","USA"
"407",60304,"Chicago","false","USA"
"408",60402,"Chicago","false","USA"
"409",60459,"Chicago","false","USA"
"410",60630,"Chicago","false","USA"
"411",60646,"Chicago","false","USA"
"412",60661,"Chicago","false","USA"
"413",60602,"Chicago","true","USA"
"414",60603,"Chicago","true","USA"
"415",60652,"Chicago","false","USA"
"416",60625,"Chicago","false","USA"
"417",60655,"Chicago","false","USA"
"418",60611,"Chicago","false","USA"
"419",60456,"Chicago","false","USA"
"420",60654,"Chicago","false","USA"
"421",60615,"Chicago","false","USA"
"422",60804,"Chicago","false","USA"
"423",60621,"Chicago","false","USA"
"424",60706,"Chicago","false","USA"
"425",60637,"Chicago","false","USA"
"426",60632,"Chicago","false","USA"
"427",60601,"Chicago","true","USA"
"428",60613,"Chicago","false","USA"
"429",60629,"Chicago","false","USA"
"430",60419,"Chicago","false","USA"
"431",60644,"Chicago","false","USA"
"432",60805,"Chicago","false","USA"
"433",60653,"Chicago","false","USA"
"434",60614,"Chicago","false","USA"
"435",60131,"Chicago","false","USA"
"436",60628,"Chicago","false","USA"
"437",60651,"Chicago","false","USA"
"438",60607,"Chicago","false","USA"
"439",60018,"Chicago","false","USA"
"440",60803,"Chicago","false","USA"
"441",60657,"Chicago","false","USA"
"442",60623,"Chicago","false","USA"
"443",60077,"Chicago","false","USA"
"444",60501,"Chicago","false","USA"
"445",60176,"Chicago","false","USA"
"446",46320,"Chicago","false","USA"
"447",60409,"Chicago","false","USA"
"448",60406,"Chicago","false","USA"
"449",60202,"Chicago","false","USA"
"450",60007,"Chicago","false","USA"
"451",60453,"Chicago","false","USA"
"452",60076,"Chicago","false","USA"
"453",60106,"Chicago","false","USA"
"454",60609,"Chicago","false","USA"
"455",60612,"Chicago","false","USA"
"456",60620,"Chicago","false","USA"
"457",60605,"Chicago","false","USA"
"458",60606,"Chicago","true","USA"
"459",60622,"Chicago","false","USA"
"460",60619,"Chicago","false","USA"
"461",60634,"Chicago","false","USA"
"462",60616,"Chicago","false","USA"
"463",60618,"Chicago","false","USA"
"464",60638,"Chicago","false","USA"
"465",60659,"Chicago","false","USA"
"466",60656,"Chicago","false","USA"
"467",60631,"Chicago","false","USA"
"468",60647,"Chicago","false","USA"
"469",60649,"Chicago","false","USA"
"470",60642,"Chicago","false","USA"
"471",60641,"Chicago","false","USA"
"472",60707,"Chicago","false","USA"
"473",60714,"Chicago","false","USA"
"474",60068,"Chicago","false","USA"
"475",60827,"Chicago","false","USA"
"476",60626,"Chicago","false","USA"
"477",60660,"Chicago","false","USA"
"478",60712,"Chicago","false","USA"
"479",60639,"Chicago","false","USA"
"480",60617,"Chicago","false","USA"
"481",60610,"Chicago","false","USA"
"482",60608,"Chicago","false","USA"
"483",60624,"Chicago","false","USA"
"484",77583,"Houston","false","USA"
"485",77086,"Houston","false","USA"
"486",77006,"Houston","false","USA"
"487",77072,"Houston","false","USA"
"488",77401,"Houston","false","USA"
"489",77098,"Houston","false","USA"
"490",77502,"Houston","false","USA"
"491",77057,"Houston","false","USA"
"492",77201,"Houston","false","USA"
"493",77085,"Houston","false","USA"
"494",77004,"Houston","false","USA"
"495",77028,"Houston","false","USA"
"496",77484,"Houston","false","USA"
"497",77547,"Houston","false","USA"
"498",77587,"Houston","false","USA"
"499",77033,"Houston","false","USA"
"500",77046,"Houston","false","USA"
"501",77022,"Houston","false","USA"
"502",77093,"Houston","false","USA"
"503",77099,"Houston","false","USA"
"504",77062,"Houston","false","USA"
"505",77071,"Houston","false","USA"
"506",77008,"Houston","false","USA"
"507",77010,"Houston","true","USA"
"508",77076,"Houston","false","USA"
"509",77380,"Houston","false","USA"
"510",77068,"Houston","false","USA"
"511",77429,"Houston","false","USA"
"512",77039,"Houston","false","USA"
"513",77079,"Houston","false","USA"
"514",77058,"Houston","false","USA"
"515",77024,"Houston","false","USA"
"516",77357,"Houston","false","USA"
"517",77054,"Houston","false","USA"
"518",77478,"Houston","false","USA"
"519",77051,"Houston","false","USA"
"520",77012,"Houston","false","USA"
"521",77040,"Houston","false","USA"
"522",77584,"Houston","false","USA"
"523",77077,"Houston","false","USA"
"524",77450,"Houston","false","USA"
"525",77018,"Houston","false","USA"
"526",77504,"Houston","false","USA"
"527",77373,"Houston","false","USA"
"528",77045,"Houston","false","USA"
"529",77066,"Houston","false","USA"
"530",77336,"Houston","false","USA"
"531",77536,"Houston","false","USA"
"532",77581,"Houston","false","USA"
"533",77449,"Houston","false","USA"
"534",77053,"Houston","false","USA"
"535",77020,"Houston","false","USA"
"536",77060,"Houston","false","USA"
"537",77477,"Houston","false","USA"
"538",77407,"Houston","false","USA"
"539",77043,"Houston","false","USA"
"540",77520,"Houston","false","USA"
"541",77503,"Houston","false","USA"
"542",77042,"Houston","false","USA"
"543",77083,"Houston","false","USA"
"544",77011,"Houston","false","USA"
"545",77073,"Houston","false","USA"
"546",77021,"Houston","false","USA"
"547",77091,"Houston","false","USA"
"548",77036,"Houston","false","USA"
"549",77396,"Houston","false","USA"
"550",77375,"Houston","false","USA"
"551",77044,"Houston","false","USA"
"552",77386,"Houston","false","USA"
"553",77388,"Houston","false","USA"
"554",77406,"Houston","false","USA"
"555",77377,"Houston","false","USA"
"556",77379,"Houston","false","USA"
"557",77571,"Houston","false","USA"
"558",77459,"Houston","false","USA"
"559",77532,"Houston","false","USA"
"560",77489,"Houston","false","USA"
"561",77493,"Houston","false","USA"
"562",77494,"Houston","false","USA"
"563",77447,"Houston","false","USA"
"564",77498,"Houston","false","USA"
"565",77505,"Houston","false","USA"
"566",77530,"Houston","false","USA"
"567",77598,"Houston","false","USA"
"568",77433,"Houston","false","USA"
"569",77506,"Houston","false","USA"
"570",77545,"Houston","false","USA"
"571",77546,"Houston","false","USA"
"572",77074,"Houston","false","USA"
"573",77075,"Houston","false","USA"
"574",77346,"Houston","false","USA"
"575",77338,"Houston","false","USA"
"576",77339,"Houston","false","USA"
"577",77078,"Houston","false","USA"
"578",77080,"Houston","false","USA"
"579",77081,"Houston","false","USA"
"580",77082,"Houston","false","USA"
"581",77048,"Houston","false","USA"
"582",77049,"Houston","false","USA"
"583",77067,"Houston","false","USA"
"584",77069,"Houston","false","USA"
"585",77035,"Houston","false","USA"
"586",77037,"Houston","false","USA"
"587",77041,"Houston","false","USA"
"588",77047,"Houston","false","USA"
"589",77096,"Houston","false","USA"
"590",77014,"Houston","false","USA"
"591",77016,"Houston","false","USA"
"592",77017,"Houston","false","USA"
"593",77019,"Houston","false","USA"
"594",77055,"Houston","false","USA"
"595",77030,"Houston","false","USA"
"596",77031,"Houston","false","USA"
"597",77064,"Houston","false","USA"
"598",77056,"Houston","false","USA"
"599",77059,"Houston","false","USA"
"600",77061,"Houston","false","USA"
"601",77034,"Houston","false","USA"
"602",77065,"Houston","false","USA"
"603",77087,"Houston","false","USA"
"604",77088,"Houston","false","USA"
"605",77095,"Houston","false","USA"
"606",77005,"Houston","false","USA"
"607",77009,"Houston","false","USA"
"608",77013,"Houston","false","USA"
"609",77092,"Houston","false","USA"
"610",77025,"Houston","false","USA"
"611",77027,"Houston","false","USA"
"612",77029,"Houston","false","USA"
"613",77094,"Houston","false","USA"
"614",77090,"Houston","false","USA"
"615",77084,"Houston","false","USA"
"616",77345,"Houston","false","USA"
"617",77003,"Houston","false","USA"
"618",77389,"Houston","false","USA"
"619",77038,"Houston","false","USA"
"620",77063,"Houston","false","USA"
"621",77032,"Houston","false","USA"
"622",77002,"Houston","true","USA"
"623",77365,"Houston","false","USA"
"624",77070,"Houston","false","USA"
"625",77089,"Houston","false","USA"
"626",77007,"Houston","false","USA"
"627",77015,"Houston","false","USA"
"628",77050,"Houston","false","USA"
"629",77026,"Houston","false","USA"
"630",77023,"Houston","false","USA"
"631",85019,"Phoenix","false","USA"
"632",85053,"Phoenix","false","USA"
"633",85383,"Phoenix","false","USA"
"634",85045,"Phoenix","false","USA"
"635",85306,"Phoenix","false","USA"
"636",85004,"Phoenix","true","USA"
"637",85054,"Phoenix","false","USA"
"638",85331,"Phoenix","false","USA"
"639",85037,"Phoenix","false","USA"
"640",85015,"Phoenix","false","USA"
"641",85020,"Phoenix","false","USA"
"642",85033,"Phoenix","false","USA"
"643",85017,"Phoenix","false","USA"
"644",85353,"Phoenix","false","USA"
"645",85023,"Phoenix","false","USA"
"646",85003,"Phoenix","true","USA"
"647",85253,"Phoenix","false","USA"
"648",85048,"Phoenix","false","USA"
"649",85305,"Phoenix","false","USA"
"650",85027,"Phoenix","false","USA"
"651",85034,"Phoenix","false","USA"
"652",85012,"Phoenix","false","USA"
"653",85028,"Phoenix","false","USA"
"654",85392,"Phoenix","false","USA"
"655",85083,"Phoenix","false","USA"
"656",85226,"Phoenix","false","USA"
"657",85043,"Phoenix","false","USA"
"658",85255,"Phoenix","false","USA"
"659",85013,"Phoenix","false","USA"
"660",85040,"Phoenix","false","USA"
"661",85008,"Phoenix","false","USA"
"662",85029,"Phoenix","false","USA"
"663",85016,"Phoenix","false","USA"
"664",85032,"Phoenix","false","USA"
"665",85018,"Phoenix","false","USA"
"666",85024,"Phoenix","false","USA"
"667",85009,"Phoenix","false","USA"
"668",85086,"Phoenix","false","USA"
"669",85007,"Phoenix","false","USA"
"670",85035,"Phoenix","false","USA"
"671",85031,"Phoenix","false","USA"
"672",85041,"Phoenix","false","USA"
"673",85006,"Phoenix","false","USA"
"674",85014,"Phoenix","false","USA"
"675",85283,"Phoenix","false","USA"
"676",85282,"Phoenix","false","USA"
"677",85257,"Phoenix","false","USA"
"678",85254,"Phoenix","false","USA"
"679",85304,"Phoenix","false","USA"
"680",85307,"Phoenix","false","USA"
"681",85301,"Phoenix","false","USA"
"682",85281,"Phoenix","false","USA"
"683",85266,"Phoenix","false","USA"
"684",85251,"Phoenix","false","USA"
"685",85087,"Phoenix","false","USA"
"686",85339,"Phoenix","false","USA"
"687",85340,"Phoenix","false","USA"
"688",85085,"Phoenix","false","USA"
"689",85042,"Phoenix","false","USA"
"690",85044,"Phoenix","false","USA"
"691",85302,"Phoenix","false","USA"
"692",85050,"Phoenix","false","USA"
"693",85308,"Phoenix","false","USA"
"694",85022,"Phoenix","false","USA"
"695",85021,"Phoenix","false","USA"
"696",85310,"Phoenix","false","USA"
"697",85051,"Phoenix","false","USA"
"698",19137,"Philadelphia","false","USA"
"699",19102,"Philadelphia","true","USA"
"700",19103,"Philadelphia","true","USA"
"701",19107,"Philadelphia","true","USA"
"702",19004,"Philadelphia","false","USA"
"703",19096,"Philadelphia","false","USA"
"704",19116,"Philadelphia","false","USA"
"705",19135,"Philadelphia","false","USA"
"706",19146,"Philadelphia","false","USA"
"707",19095,"Philadelphia","false","USA"
"708",19120,"Philadelphia","false","USA"
"709",19126,"Philadelphia","false","USA"
"710",19147,"Philadelphia","false","USA"
"711",8077,"Philadelphia","false","USA"
"712",19151,"Philadelphia","false","USA"
"713",19029,"Philadelphia","false","USA"
"714",8065,"Philadelphia","false","USA"
"715",19122,"Philadelphia","false","USA"
"716",19053,"Philadelphia","false","USA"
"717",8030,"Philadelphia","false","USA"
"718",19153,"Philadelphia","false","USA"
"719",19046,"Philadelphia","false","USA"
"720",19444,"Philadelphia","false","USA"
"721",19132,"Philadelphia","false","USA"
"722",19031,"Philadelphia","false","USA"
"723",8075,"Philadelphia","false","USA"
"724",8086,"Philadelphia","false","USA"
"725",19114,"Philadelphia","false","USA"
"726",19118,"Philadelphia","false","USA"
"727",8103,"Philadelphia","false","USA"
"728",8110,"Philadelphia","false","USA"
"729",19123,"Philadelphia","false","USA"
"730",19038,"Philadelphia","false","USA"
"731",19140,"Philadelphia","false","USA"
"732",19109,"Philadelphia","true","USA"
"733",19035,"Philadelphia","false","USA"
"734",19104,"Philadelphia","false","USA"
"735",19112,"Philadelphia","false","USA"
"736",19113,"Philadelphia","false","USA"
"737",19115,"Philadelphia","false","USA"
"738",19050,"Philadelphia","false","USA"
"739",19066,"Philadelphia","false","USA"
"740",19072,"Philadelphia","false","USA"
"741",19079,"Philadelphia","false","USA"
"742",19082,"Philadelphia","false","USA"
"743",19119,"Philadelphia","false","USA"
"744",19124,"Philadelphia","false","USA"
"745",19027,"Philadelphia","false","USA"
"746",19023,"Philadelphia","false","USA"
"747",19006,"Philadelphia","false","USA"
"748",19125,"Philadelphia","false","USA"
"749",19129,"Philadelphia","false","USA"
"750",19131,"Philadelphia","false","USA"
"751",19134,"Philadelphia","false","USA"
"752",19136,"Philadelphia","false","USA"
"753",19138,"Philadelphia","false","USA"
"754",19139,"Philadelphia","false","USA"
"755",19145,"Philadelphia","false","USA"
"756",19148,"Philadelphia","false","USA"
"757",19149,"Philadelphia","false","USA"
"758",19150,"Philadelphia","false","USA"
"759",19152,"Philadelphia","false","USA"
"760",8093,"Philadelphia","false","USA"
"761",8102,"Philadelphia","false","USA"
"762",19111,"Philadelphia","false","USA"
"763",19142,"Philadelphia","false","USA"
"764",19130,"Philadelphia","false","USA"
"765",19133,"Philadelphia","false","USA"
"766",8104,"Philadelphia","false","USA"
"767",8063,"Philadelphia","false","USA"
"768",19428,"Philadelphia","false","USA"
"769",19144,"Philadelphia","false","USA"
"770",19020,"Philadelphia","false","USA"
"771",19121,"Philadelphia","false","USA"
"772",19154,"Philadelphia","false","USA"
"773",19127,"Philadelphia","false","USA"
"774",19143,"Philadelphia","false","USA"
"775",19012,"Philadelphia","false","USA"
"776",19128,"Philadelphia","false","USA"
"777",19141,"Philadelphia","false","USA"
"778",19106,"Philadelphia","true","USA"
"779",78223,"San Antonio","false","USA"
"780",78056,"San Antonio","false","USA"
"781",78208,"San Antonio","false","USA"
"782",78259,"San Antonio","false","USA"
"783",78235,"San Antonio","false","USA"
"784",78207,"San Antonio","false","USA"
"785",78240,"San Antonio","false","USA"
"786",78245,"San Antonio","false","USA"
"787",78205,"San Antonio","true","USA"
"788",78073,"San Antonio","false","USA"
"789",78244,"San Antonio","false","USA"
"790",78232,"San Antonio","false","USA"
"791",78204,"San Antonio","false","USA"
"792",78242,"San Antonio","false","USA"
"793",78211,"San Antonio","false","USA"
"794",78261,"San Antonio","false","USA"
"795",78226,"San Antonio","false","USA"
"796",78112,"San Antonio","false","USA"
"797",78228,"San Antonio","false","USA"
"798",78218,"San Antonio","false","USA"
"799",78219,"San Antonio","false","USA"
"800",78260,"San Antonio","false","USA"
"801",78230,"San Antonio","false","USA"
"802",78234,"San Antonio","false","USA"
"803",78243,"San Antonio","false","USA"
"804",78258,"San Antonio","false","USA"
"805",78253,"San Antonio","false","USA"
"806",78203,"San Antonio","false","USA"
"807",78224,"San Antonio","false","USA"
"808",78202,"San Antonio","false","USA"
"809",78256,"San Antonio","false","USA"
"810",78254,"San Antonio","false","USA"
"811",78239,"San Antonio","false","USA"
"812",78209,"San Antonio","false","USA"
"813",78015,"San Antonio","false","USA"
"814",78210,"San Antonio","false","USA"
"815",78212,"San Antonio","false","USA"
"816",78213,"San Antonio","false","USA"
"817",78214,"San Antonio","false","USA"
"818",78201,"San Antonio","false","USA"
"819",78215,"San Antonio","false","USA"
"820",78216,"San Antonio","false","USA"
"821",78227,"San Antonio","false","USA"
"822",78217,"San Antonio","false","USA"
"823",78238,"San Antonio","false","USA"
"824",78154,"San Antonio","false","USA"
"825",78222,"San Antonio","false","USA"
"826",78109,"San Antonio","false","USA"
"827",78257,"San Antonio","false","USA"
"828",78251,"San Antonio","false","USA"
"829",78248,"San Antonio","false","USA"
"830",78249,"San Antonio","false","USA"
"831",78250,"San Antonio","false","USA"
"832",78221,"San Antonio","false","USA"
"833",78152,"San Antonio","false","USA"
"834",78233,"San Antonio","false","USA"
"835",78229,"San Antonio","false","USA"
"836",78236,"San Antonio","false","USA"
"837",78237,"San Antonio","false","USA"
"838",78247,"San Antonio","false","USA"
"839",78220,"San Antonio","false","USA"
"840",78252,"San Antonio","false","USA"
"841",78263,"San Antonio","false","USA"
"842",78264,"San Antonio","false","USA"
"843",78266,"San Antonio","false","USA"
"844",78255,"San Antonio","false","USA"
"845",78023,"San Antonio","false","USA"
"846",78231,"San Antonio","false","USA"
"847",78225,"San Antonio","false","USA"
"848",92134,"San Diego","false","USA"
"849",92065,"San Diego","false","USA"
"850",92132,"San Diego","false","USA"
"851",92147,"San Diego","false","USA"
"852",91932,"San Diego","false","USA"
"853",92109,"San Diego","false","USA"
"854",92145,"San Diego","false","USA"
"855",92117,"San Diego","false","USA"
"856",92123,"San Diego","false","USA"
"857",92118,"San Diego","false","USA"
"858",92135,"San Diego","false","USA"
"859",91941,"San Diego","false","USA"
"860",92111,"San Diego","false","USA"
"861",92129,"San Diego","false","USA"
"862",91977,"San Diego","false","USA"
"863",92108,"San Diego","false","USA"
"864",92067,"San Diego","false","USA"
"865",92037,"San Diego","false","USA"
"866",91911,"San Diego","false","USA"
"867",92014,"San Diego","false","USA"
"868",92131,"San Diego","false","USA"
"869",92116,"San Diego","false","USA"
"870",92102,"San Diego","false","USA"
"871",92119,"San Diego","false","USA"
"872",92173,"San Diego","false","USA"
"873",91914,"San Diego","false","USA"
"874",92020,"San Diego","false","USA"
"875",92091,"San Diego","false","USA"
"876",91945,"San Diego","false","USA"
"877",91915,"San Diego","false","USA"
"878",91950,"San Diego","false","USA"
"879",91942,"San Diego","false","USA"
"880",92127,"San Diego","false","USA"
"881",92128,"San Diego","false","USA"
"882",92103,"San Diego","false","USA"
"883",92027,"San Diego","false","USA"
"884",92130,"San Diego","false","USA"
"885",92114,"San Diego","false","USA"
"886",92025,"San Diego","false","USA"
"887",92105,"San Diego","false","USA"
"888",92115,"San Diego","false","USA"
"889",92139,"San Diego","false","USA"
"890",92140,"San Diego","false","USA"
"891",92106,"San Diego","false","USA"
"892",92071,"San Diego","false","USA"
"893",92064,"San Diego","false","USA"
"894",92075,"San Diego","false","USA"
"895",92029,"San Diego","false","USA"
"896",92107,"San Diego","false","USA"
"897",92110,"San Diego","false","USA"
"898",92120,"San Diego","false","USA"
"899",92122,"San Diego","false","USA"
"900",92124,"San Diego","false","USA"
"901",92121,"San Diego","false","USA"
"902",92154,"San Diego","false","USA"
"903",92126,"San Diego","false","USA"
"904",92101,"San Diego","true","USA"
"905",92113,"San Diego","false","USA"
"906",92104,"San Diego","false","USA"
"907",75089,"Dallas","false","USA"
"908",75287,"Dallas","false","USA"
"909",75075,"Dallas","false","USA"
"910",75223,"Dallas","false","USA"
"911",75081,"Dallas","false","USA"
"912",75224,"Dallas","false","USA"
"913",75251,"Dallas","false","USA"
"914",75149,"Dallas","false","USA"
"915",75254,"Dallas","false","USA"
"916",75270,"Dallas","true","USA"
"917",75246,"Dallas","false","USA"
"918",75061,"Dallas","false","USA"
"919",75236,"Dallas","false","USA"
"920",75150,"Dallas","false","USA"
"921",75220,"Dallas","false","USA"
"922",75087,"Dallas","false","USA"
"923",75210,"Dallas","false","USA"
"924",75252,"Dallas","false","USA"
"925",75126,"Dallas","false","USA"
"926",75205,"Dallas","false","USA"
"927",75019,"Dallas","false","USA"
"928",75080,"Dallas","false","USA"
"929",75206,"Dallas","false","USA"
"930",75181,"Dallas","false","USA"
"931",75231,"Dallas","false","USA"
"932",75006,"Dallas","false","USA"
"933",75218,"Dallas","false","USA"
"934",75104,"Dallas","false","USA"
"935",75166,"Dallas","false","USA"
"936",75243,"Dallas","false","USA"
"937",75115,"Dallas","false","USA"
"938",75207,"Dallas","false","USA"
"939",75244,"Dallas","false","USA"
"940",75001,"Dallas","false","USA"
"941",75137,"Dallas","false","USA"
"942",75203,"Dallas","false","USA"
"943",75007,"Dallas","false","USA"
"944",75208,"Dallas","false","USA"
"945",75039,"Dallas","false","USA"
"946",75241,"Dallas","false","USA"
"947",75051,"Dallas","false","USA"
"948",75212,"Dallas","false","USA"
"949",75234,"Dallas","false","USA"
"950",75215,"Dallas","false","USA"
"951",75052,"Dallas","false","USA"
"952",75093,"Dallas","false","USA"
"953",75116,"Dallas","false","USA"
"954",75098,"Dallas","false","USA"
"955",75088,"Dallas","false","USA"
"956",75141,"Dallas","false","USA"
"957",75216,"Dallas","false","USA"
"958",75180,"Dallas","false","USA"
"959",75209,"Dallas","false","USA"
"960",75134,"Dallas","false","USA"
"961",75211,"Dallas","false","USA"
"962",75201,"Dallas","true","USA"
"963",75202,"Dallas","true","USA"
"964",75204,"Dallas","false","USA"
"965",75390,"Dallas","false","USA"
"966",75219,"Dallas","false","USA"
"967",75248,"Dallas","false","USA"
"968",75182,"Dallas","false","USA"
"969",75249,"Dallas","false","USA"
"970",75042,"Dallas","false","USA"
"971",75041,"Dallas","false","USA"
"972",75240,"Dallas","false","USA"
"973",75237,"Dallas","false","USA"
"974",75230,"Dallas","false","USA"
"975",75227,"Dallas","false","USA"
"976",75238,"Dallas","false","USA"
"977",75060,"Dallas","false","USA"
"978",75214,"Dallas","false","USA"
"979",75225,"Dallas","false","USA"
"980",75063,"Dallas","false","USA"
"981",75050,"Dallas","false","USA"
"982",75043,"Dallas","false","USA"
"983",75233,"Dallas","false","USA"
"984",75235,"Dallas","false","USA"
"985",75159,"Dallas","false","USA"
"986",75062,"Dallas","false","USA"
"987",75247,"Dallas","false","USA"
"988",75253,"Dallas","false","USA"
"989",75228,"Dallas","false","USA"
"990",75229,"Dallas","false","USA"
"991",75232,"Dallas","false","USA"
"992",75032,"Dallas","false","USA"
"993",75217,"Dallas","false","USA"
"994",75226,"Dallas","false","USA"
"995",95140,"San Jose","false","USA"
"996",95051,"San Jose","false","USA"
"997",95139,"San Jose","false","USA"
"998",95121,"San Jose","false","USA"
"999",95128,"San Jose","false","USA"
"1000",95037,"San Jose","false","USA"
"1001",95054,"San Jose","false","USA"
"1002",95113,"San Jose","true","USA"
"1003",95129,"San Jose","false","USA"
"1004",95148,"San Jose","false","USA"
"1005",95127,"San Jose","false","USA"
"1006",95120,"San Jose","false","USA"
"1007",95126,"San Jose","false","USA"
"1008",95119,"San Jose","false","USA"
"1009",94089,"San Jose","false","USA"
"1010",95131,"San Jose","false","USA"
"1011",95133,"San Jose","false","USA"
"1012",95130,"San Jose","false","USA"
"1013",95014,"San Jose","false","USA"
"1014",95134,"San Jose","false","USA"
"1015",95136,"San Jose","false","USA"
"1016",95013,"San Jose","false","USA"
"1017",95125,"San Jose","false","USA"
"1018",95002,"San Jose","false","USA"
"1019",94538,"San Jose","false","USA"
"1020",95112,"San Jose","false","USA"
"1021",95116,"San Jose","false","USA"
"1022",95117,"San Jose","false","USA"
"1023",95123,"San Jose","false","USA"
"1024",95118,"San Jose","false","USA"
"1025",95124,"San Jose","false","USA"
"1026",95110,"San Jose","false","USA"
"1027",95135,"San Jose","false","USA"
"1028",95132,"San Jose","false","USA"
"1029",95008,"San Jose","false","USA"
"1030",95070,"San Jose","false","USA"
"1031",95138,"San Jose","false","USA"
"1032",95050,"San Jose","false","USA"
"1033",95035,"San Jose","false","USA"
"1034",95032,"San Jose","false","USA"
"1035",95122,"San Jose","false","USA"
"1036",95111,"San Jose","false","USA"
"1037",78653,"Austin","false","USA"
"1038",78756,"Austin","false","USA"
"1039",78612,"Austin","false","USA"
"1040",78757,"Austin","false","USA"
"1041",78741,"Austin","false","USA"
"1042",78748,"Austin","false","USA"
"1043",78702,"Austin","false","USA"
"1044",78712,"Austin","false","USA"
"1045",78701,"Austin","true","USA"
"1046",78641,"Austin","false","USA"
"1047",78733,"Austin","false","USA"
"1048",78704,"Austin","false","USA"
"1049",78739,"Austin","false","USA"
"1050",78742,"Austin","false","USA"
"1051",78725,"Austin","false","USA"
"1052",78719,"Austin","false","USA"
"1053",78724,"Austin","false","USA"
"1054",78744,"Austin","false","USA"
"1055",78681,"Austin","false","USA"
"1056",78745,"Austin","false","USA"
"1057",78610,"Austin","false","USA"
"1058",78731,"Austin","false","USA"
"1059",78617,"Austin","false","USA"
"1060",78728,"Austin","false","USA"
"1061",78734,"Austin","false","USA"
"1062",78729,"Austin","false","USA"
"1063",78737,"Austin","false","USA"
"1064",78749,"Austin","false","USA"
"1065",78730,"Austin","false","USA"
"1066",78613,"Austin","false","USA"
"1067",78660,"Austin","false","USA"
"1068",78750,"Austin","false","USA"
"1069",78754,"Austin","false","USA"
"1070",78758,"Austin","false","USA"
"1071",78759,"Austin","false","USA"
"1072",78652,"Austin","false","USA"
"1073",78664,"Austin","false","USA"
"1074",78703,"Austin","false","USA"
"1075",78705,"Austin","false","USA"
"1076",78717,"Austin","false","USA"
"1077",78721,"Austin","false","USA"
"1078",78722,"Austin","false","USA"
"1079",78723,"Austin","false","USA"
"1080",78726,"Austin","false","USA"
"1081",78727,"Austin","false","USA"
"1082",78735,"Austin","false","USA"
"1083",78736,"Austin","false","USA"
"1084",78738,"Austin","false","USA"
"1085",78747,"Austin","false","USA"
"1086",78752,"Austin","false","USA"
"1087",78746,"Austin","false","USA"
"1088",78732,"Austin","false","USA"
"1089",78751,"Austin","false","USA"
"1090",78753,"Austin","false","USA"
"1091",32097,"Jacksonville","false","USA"
"1092",32011,"Jacksonville","false","USA"
"1093",32212,"Jacksonville","false","USA"
"1094",32227,"Jacksonville","false","USA"
"1095",32204,"Jacksonville","false","USA"
"1096",32266,"Jacksonville","false","USA"
"1097",32223,"Jacksonville","false","USA"
"1098",32228,"Jacksonville","false","USA"
"1099",32257,"Jacksonville","false","USA"
"1100",32065,"Jacksonville","false","USA"
"1101",32246,"Jacksonville","false","USA"
"1102",32073,"Jacksonville","false","USA"
"1103",32254,"Jacksonville","false","USA"
"1104",32258,"Jacksonville","false","USA"
"1105",32233,"Jacksonville","false","USA"
"1106",32220,"Jacksonville","false","USA"
"1107",32034,"Jacksonville","false","USA"
"1108",32207,"Jacksonville","false","USA"
"1109",32081,"Jacksonville","false","USA"
"1110",32003,"Jacksonville","false","USA"
"1111",32226,"Jacksonville","false","USA"
"1112",32256,"Jacksonville","false","USA"
"1113",32277,"Jacksonville","false","USA"
"1114",32216,"Jacksonville","false","USA"
"1115",32244,"Jacksonville","false","USA"
"1116",32224,"Jacksonville","false","USA"
"1117",32219,"Jacksonville","false","USA"
"1118",32222,"Jacksonville","false","USA"
"1119",32225,"Jacksonville","false","USA"
"1120",32221,"Jacksonville","false","USA"
"1121",32063,"Jacksonville","false","USA"
"1122",32206,"Jacksonville","false","USA"
"1123",32205,"Jacksonville","false","USA"
"1124",32209,"Jacksonville","false","USA"
"1125",32210,"Jacksonville","false","USA"
"1126",32009,"Jacksonville","false","USA"
"1127",32082,"Jacksonville","false","USA"
"1128",32202,"Jacksonville","true","USA"
"1129",32250,"Jacksonville","false","USA"
"1130",32234,"Jacksonville","false","USA"
"1131",32259,"Jacksonville","false","USA"
"1132",32217,"Jacksonville","false","USA"
"1133",32218,"Jacksonville","false","USA"
"1134",32208,"Jacksonville","false","USA"
"1135",32211,"Jacksonville","false","USA"
"1136",76148,"Fort Worth","false","USA"
"1137",76103,"Fort Worth","false","USA"
"1138",76248,"Fort Worth","false","USA"
"1139",76039,"Fort Worth","false","USA"
"1140",76134,"Fort Worth","false","USA"
"1141",76013,"Fort Worth","false","USA"
"1142",76133,"Fort Worth","false","USA"
"1143",76140,"Fort Worth","false","USA"
"1144",76135,"Fort Worth","false","USA"
"1145",76020,"Fort Worth","false","USA"
"1146",76112,"Fort Worth","false","USA"
"1147",76247,"Fort Worth","false","USA"
"1148",76036,"Fort Worth","false","USA"
"1149",76118,"Fort Worth","false","USA"
"1150",76179,"Fort Worth","false","USA"
"1151",76114,"Fort Worth","false","USA"
"1152",76126,"Fort Worth","false","USA"
"1153",76006,"Fort Worth","false","USA"
"1154",76115,"Fort Worth","false","USA"
"1155",76110,"Fort Worth","false","USA"
"1156",76129,"Fort Worth","false","USA"
"1157",76244,"Fort Worth","false","USA"
"1158",76109,"Fort Worth","false","USA"
"1159",76040,"Fort Worth","false","USA"
"1160",76119,"Fort Worth","false","USA"
"1161",76120,"Fort Worth","false","USA"
"1162",76123,"Fort Worth","false","USA"
"1163",76052,"Fort Worth","false","USA"
"1164",76060,"Fort Worth","false","USA"
"1165",76127,"Fort Worth","false","USA"
"1166",76104,"Fort Worth","false","USA"
"1167",76105,"Fort Worth","false","USA"
"1168",76106,"Fort Worth","false","USA"
"1169",76107,"Fort Worth","false","USA"
"1170",76111,"Fort Worth","false","USA"
"1171",76132,"Fort Worth","false","USA"
"1172",76053,"Fort Worth","false","USA"
"1173",76028,"Fort Worth","false","USA"
"1174",76177,"Fort Worth","false","USA"
"1175",76155,"Fort Worth","false","USA"
"1176",76164,"Fort Worth","false","USA"
"1177",76137,"Fort Worth","false","USA"
"1178",76102,"Fort Worth","true","USA"
"1179",76116,"Fort Worth","false","USA"
"1180",76108,"Fort Worth","false","USA"
"1181",76262,"Fort Worth","false","USA"
"1182",76012,"Fort Worth","false","USA"
"1183",76117,"Fort Worth","false","USA"
"1184",76008,"Fort Worth","false","USA"
"1185",75050,"Fort Worth","false","USA"
"1186",76051,"Fort Worth","false","USA"
"1187",76016,"Fort Worth","false","USA"
"1188",76131,"Fort Worth","false","USA"
"1189",43203,"Columbus","false","USA"
"1190",43004,"Columbus","false","USA"
"1191",43002,"Columbus","false","USA"
"1192",43201,"Columbus","false","USA"
"1193",43202,"Columbus","false","USA"
"1194",43222,"Columbus","false","USA"
"1195",43211,"Columbus","false","USA"
"1196",43228,"Columbus","false","USA"
"1197",43231,"Columbus","false","USA"
"1198",43217,"Columbus","false","USA"
"1199",43068,"Columbus","false","USA"
"1200",43125,"Columbus","false","USA"
"1201",43017,"Columbus","false","USA"
"1202",43082,"Columbus","false","USA"
"1203",43224,"Columbus","false","USA"
"1204",43219,"Columbus","false","USA"
"1205",43232,"Columbus","false","USA"
"1206",43119,"Columbus","false","USA"
"1207",43062,"Columbus","false","USA"
"1208",43230,"Columbus","false","USA"
"1209",43214,"Columbus","false","USA"
"1210",43110,"Columbus","false","USA"
"1211",43207,"Columbus","false","USA"
"1212",43210,"Columbus","false","USA"
"1213",43240,"Columbus","false","USA"
"1214",43229,"Columbus","false","USA"
"1215",43215,"Columbus","true","USA"
"1216",43026,"Columbus","false","USA"
"1217",43054,"Columbus","false","USA"
"1218",43085,"Columbus","false","USA"
"1219",43137,"Columbus","false","USA"
"1220",43123,"Columbus","false","USA"
"1221",43205,"Columbus","false","USA"
"1222",43147,"Columbus","false","USA"
"1223",43221,"Columbus","false","USA"
"1224",43209,"Columbus","false","USA"
"1225",43235,"Columbus","false","USA"
"1226",43220,"Columbus","false","USA"
"1227",43223,"Columbus","false","USA"
"1228",43146,"Columbus","false","USA"
"1229",43065,"Columbus","false","USA"
"1230",43213,"Columbus","false","USA"
"1231",43016,"Columbus","false","USA"
"1232",43081,"Columbus","false","USA"
"1233",43109,"Columbus","false","USA"
"1234",43206,"Columbus","false","USA"
"1235",43204,"Columbus","false","USA"
"1236",43212,"Columbus","false","USA"
"1237",43227,"Columbus","false","USA"
"1238",43035,"Columbus","false","USA"
"1239",46183,"Indianapolis","false","USA"
"1240",46214,"Indianapolis","false","USA"
"1241",46268,"Indianapolis","false","USA"
"1242",46254,"Indianapolis","false","USA"
"1243",46260,"Indianapolis","false","USA"
"1244",46290,"Indianapolis","false","USA"
"1245",46237,"Indianapolis","false","USA"
"1246",46142,"Indianapolis","false","USA"
"1247",46235,"Indianapolis","false","USA"
"1248",46218,"Indianapolis","false","USA"
"1249",46220,"Indianapolis","false","USA"
"1250",46143,"Indianapolis","false","USA"
"1251",46163,"Indianapolis","false","USA"
"1252",46038,"Indianapolis","false","USA"
"1253",46231,"Indianapolis","false","USA"
"1254",46113,"Indianapolis","false","USA"
"1255",46224,"Indianapolis","false","USA"
"1256",46140,"Indianapolis","false","USA"
"1257",46107,"Indianapolis","false","USA"
"1258",46055,"Indianapolis","false","USA"
"1259",46077,"Indianapolis","false","USA"
"1260",46126,"Indianapolis","false","USA"
"1261",46256,"Indianapolis","false","USA"
"1262",46236,"Indianapolis","false","USA"
"1263",46239,"Indianapolis","false","USA"
"1264",46250,"Indianapolis","false","USA"
"1265",46219,"Indianapolis","false","USA"
"1266",46123,"Indianapolis","false","USA"
"1267",46217,"Indianapolis","false","USA"
"1268",46033,"Indianapolis","false","USA"
"1269",46037,"Indianapolis","false","USA"
"1270",46221,"Indianapolis","false","USA"
"1271",46234,"Indianapolis","false","USA"
"1272",46205,"Indianapolis","false","USA"
"1273",46229,"Indianapolis","false","USA"
"1274",46240,"Indianapolis","false","USA"
"1275",46228,"Indianapolis","false","USA"
"1276",46259,"Indianapolis","false","USA"
"1277",46278,"Indianapolis","false","USA"
"1278",46280,"Indianapolis","false","USA"
"1279",46216,"Indianapolis","false","USA"
"1280",46112,"Indianapolis","false","USA"
"1281",46201,"Indianapolis","false","USA"
"1282",46208,"Indianapolis","false","USA"
"1283",46202,"Indianapolis","false","USA"
"1284",46241,"Indianapolis","false","USA"
"1285",46204,"Indianapolis","true","USA"
"1286",46227,"Indianapolis","false","USA"
"1287",46226,"Indianapolis","false","USA"
"1288",46225,"Indianapolis","false","USA"
"1289",46222,"Indianapolis","false","USA"
"1290",46203,"Indianapolis","false","USA"
"1291",46032,"Indianapolis","false","USA"
"1292",28282,"Charlotte","true","USA"
"1293",28280,"Charlotte","true","USA"
"1294",28244,"Charlotte","true","USA"
"1295",28078,"Charlotte","false","USA"
"1296",28207,"Charlotte","false","USA"
"1297",28269,"Charlotte","false","USA"
"1298",28226,"Charlotte","false","USA"
"1299",28213,"Charlotte","false","USA"
"1300",28278,"Charlotte","false","USA"
"1301",28210,"Charlotte","false","USA"
"1302",28217,"Charlotte","false","USA"
"1303",28027,"Charlotte","false","USA"
"1304",28205,"Charlotte","false","USA"
"1305",28104,"Charlotte","false","USA"
"1306",28211,"Charlotte","false","USA"
"1307",28215,"Charlotte","false","USA"
"1308",28212,"Charlotte","false","USA"
"1309",28208,"Charlotte","false","USA"
"1310",28209,"Charlotte","false","USA"
"1311",28277,"Charlotte","false","USA"
"1312",28214,"Charlotte","false","USA"
"1313",28216,"Charlotte","false","USA"
"1314",28227,"Charlotte","false","USA"
"1315",28075,"Charlotte","false","USA"
"1316",28134,"Charlotte","false","USA"
"1317",28173,"Charlotte","false","USA"
"1318",29708,"Charlotte","false","USA"
"1319",28204,"Charlotte","false","USA"
"1320",28202,"Charlotte","true","USA"
"1321",28203,"Charlotte","false","USA"
"1322",28120,"Charlotte","false","USA"
"1323",28273,"Charlotte","false","USA"
"1324",28262,"Charlotte","false","USA"
"1325",28270,"Charlotte","false","USA"
"1326",28206,"Charlotte","false","USA"
"1327",28105,"Charlotte","false","USA"
"1328",94127,"San Francisco","false","USA"
"1329",94121,"San Francisco","false","USA"
"1330",94118,"San Francisco","false","USA"
"1331",94108,"San Francisco","false","USA"
"1332",94130,"San Francisco","false","USA"
"1333",94104,"San Francisco","true","USA"
"1334",94115,"San Francisco","false","USA"
"1335",94134,"San Francisco","false","USA"
"1336",94111,"San Francisco","true","USA"
"1337",94117,"San Francisco","false","USA"
"1338",94103,"San Francisco","false","USA"
"1339",94110,"San Francisco","false","USA"
"1340",94109,"San Francisco","false","USA"
"1341",94158,"San Francisco","false","USA"
"1342",94131,"San Francisco","false","USA"
"1343",94132,"San Francisco","false","USA"
"1344",94965,"San Francisco","false","USA"
"1345",94102,"San Francisco","false","USA"
"1346",94501,"San Francisco","false","USA"
"1347",94129,"San Francisco","false","USA"
"1348",94116,"San Francisco","false","USA"
"1349",94133,"San Francisco","false","USA"
"1350",94920,"San Francisco","false","USA"
"1351",94107,"San Francisco","false","USA"
"1352",94112,"San Francisco","false","USA"
"1353",94114,"San Francisco","false","USA"
"1354",94014,"San Francisco","false","USA"
"1355",94015,"San Francisco","false","USA"
"1356",94123,"San Francisco","false","USA"
"1357",94005,"San Francisco","false","USA"
"1358",94124,"San Francisco","false","USA"
"1359",94105,"San Francisco","true","USA"
"1360",94122,"San Francisco","false","USA"
"1361",98039,"Seattle","false","USA"
"1362",98195,"Seattle","false","USA"
"1363",98101,"Seattle","true","USA"
"1364",98121,"Seattle","false","USA"
"1365",98136,"Seattle","false","USA"
"1366",98174,"Seattle","true","USA"
"1367",98154,"Seattle","true","USA"
"1368",98199,"Seattle","false","USA"
"1369",98119,"Seattle","false","USA"
"1370",98102,"Seattle","false","USA"
"1371",98155,"Seattle","false","USA"
"1372",98116,"Seattle","false","USA"
"1373",98104,"Seattle","true","USA"
"1374",98126,"Seattle","false","USA"
"1375",98033,"Seattle","false","USA"
"1376",98146,"Seattle","false","USA"
"1377",98168,"Seattle","false","USA"
"1378",98125,"Seattle","false","USA"
"1379",98164,"Seattle","true","USA"
"1380",98034,"Seattle","false","USA"
"1381",98178,"Seattle","false","USA"
"1382",98118,"Seattle","false","USA"
"1383",98122,"Seattle","false","USA"
"1384",98134,"Seattle","false","USA"
"1385",98144,"Seattle","false","USA"
"1386",98107,"Seattle","false","USA"
"1387",98108,"Seattle","false","USA"
"1388",98103,"Seattle","false","USA"
"1389",98109,"Seattle","false","USA"
"1390",98117,"Seattle","false","USA"
"1391",98177,"Seattle","false","USA"
"1392",98106,"Seattle","false","USA"
"1393",98115,"Seattle","false","USA"
"1394",98112,"Seattle","false","USA"
"1395",98105,"Seattle","false","USA"
"1396",98133,"Seattle","false","USA"
"1397",98040,"Seattle","false","USA"
"1398",80290,"Denver","false","USA"
"1399",80218,"Denver","false","USA"
"1400",80294,"Denver","false","USA"
"1401",80264,"Denver","false","USA"
"1402",80293,"Denver","true","USA"
"1403",80045,"Denver","false","USA"
"1404",80014,"Denver","false","USA"
"1405",80212,"Denver","false","USA"
"1406",80231,"Denver","false","USA"
"1407",80249,"Denver","false","USA"
"1408",80237,"Denver","false","USA"
"1409",80016,"Denver","false","USA"
"1410",80223,"Denver","false","USA"
"1411",80211,"Denver","false","USA"
"1412",80010,"Denver","false","USA"
"1413",80224,"Denver","false","USA"
"1414",80219,"Denver","false","USA"
"1415",80207,"Denver","false","USA"
"1416",80022,"Denver","false","USA"
"1417",80222,"Denver","false","USA"
"1418",80002,"Denver","false","USA"
"1419",80227,"Denver","false","USA"
"1420",80033,"Denver","false","USA"
"1421",80203,"Denver","false","USA"
"1422",80246,"Denver","false","USA"
"1423",80011,"Denver","false","USA"
"1424",80012,"Denver","false","USA"
"1425",80019,"Denver","false","USA"
"1426",80238,"Denver","false","USA"
"1427",80230,"Denver","false","USA"
"1428",80127,"Denver","false","USA"
"1429",80015,"Denver","false","USA"
"1430",80123,"Denver","false","USA"
"1431",80204,"Denver","false","USA"
"1432",80137,"Denver","false","USA"
"1433",80239,"Denver","false","USA"
"1434",80214,"Denver","false","USA"
"1435",80209,"Denver","false","USA"
"1436",80210,"Denver","false","USA"
"1437",80216,"Denver","false","USA"
"1438",80235,"Denver","false","USA"
"1439",80236,"Denver","false","USA"
"1440",80220,"Denver","false","USA"
"1441",80226,"Denver","false","USA"
"1442",80232,"Denver","false","USA"
"1443",80247,"Denver","false","USA"
"1444",80642,"Denver","false","USA"
"1445",80603,"Denver","false","USA"
"1446",80202,"Denver","true","USA"
"1447",80206,"Denver","false","USA"
"1448",80205,"Denver","false","USA"
"1449",80110,"Denver","false","USA"
"1450",80113,"Denver","false","USA"
"1451",80221,"Denver","false","USA"
"1452",80111,"Denver","false","USA"
"1453",20012,"Washington DC","false","USA"
"1454",20520,"Washington DC","false","USA"
"1455",20427,"Washington DC","false","USA"
"1456",20202,"Washington DC","false","USA"
"1457",20565,"Washington DC","false","USA"
"1458",20712,"Washington DC","false","USA"
"1459",20551,"Washington DC","false","USA"
"1460",20390,"Washington DC","false","USA"
"1461",20052,"Washington DC","false","USA"
"1462",20418,"Washington DC","false","USA"
"1463",20566,"Washington DC","false","USA"
"1464",20204,"Washington DC","false","USA"
"1465",20506,"Washington DC","false","USA"
"1466",20593,"Washington DC","false","USA"
"1467",20053,"Washington DC","false","USA"
"1468",20064,"Washington DC","false","USA"
"1469",20245,"Washington DC","false","USA"
"1470",20510,"Washington DC","false","USA"
"1471",20540,"Washington DC","false","USA"
"1472",20004,"Washington DC","false","USA"
"1473",20009,"Washington DC","false","USA"
"1474",20535,"Washington DC","false","USA"
"1475",20319,"Washington DC","false","USA"
"1476",20240,"Washington DC","false","USA"
"1477",20018,"Washington DC","false","USA"
"1478",20016,"Washington DC","false","USA"
"1479",20230,"Washington DC","false","USA"
"1480",20560,"Washington DC","false","USA"
"1481",20228,"Washington DC","false","USA"
"1482",20748,"Washington DC","false","USA"
"1483",20816,"Washington DC","false","USA"
"1484",20317,"Washington DC","false","USA"
"1485",20003,"Washington DC","false","USA"
"1486",20260,"Washington DC","false","USA"
"1487",20045,"Washington DC","false","USA"
"1488",20405,"Washington DC","false","USA"
"1489",20783,"Washington DC","false","USA"
"1490",22314,"Washington DC","false","USA"
"1491",20032,"Washington DC","false","USA"
"1492",20037,"Washington DC","false","USA"
"1493",20008,"Washington DC","false","USA"
"1494",22101,"Washington DC","false","USA"
"1495",20006,"Washington DC","true","USA"
"1496",20307,"Washington DC","false","USA"
"1497",20743,"Washington DC","false","USA"
"1498",20815,"Washington DC","false","USA"
"1499",20020,"Washington DC","false","USA"
"1500",20017,"Washington DC","false","USA"
"1501",20005,"Washington DC","true","USA"
"1502",20746,"Washington DC","false","USA"
"1503",20782,"Washington DC","false","USA"
"1504",20002,"Washington DC","false","USA"
"1505",20010,"Washington DC","false","USA"
"1506",20553,"Washington DC","false","USA"
"1507",22202,"Washington DC","false","USA"
"1508",22211,"Washington DC","false","USA"
"1509",20057,"Washington DC","false","USA"
"1510",20015,"Washington DC","false","USA"
"1511",22207,"Washington DC","false","USA"
"1512",20024,"Washington DC","false","USA"
"1513",20001,"Washington DC","false","USA"
"1514",20019,"Washington DC","false","USA"
"1515",20912,"Washington DC","false","USA"
"1516",20011,"Washington DC","false","USA"
"1517",20910,"Washington DC","false","USA"
"1518",20036,"Washington DC","true","USA"
"1519",20007,"Washington DC","false","USA"
"1520",20722,"Washington DC","false","USA"
"1521",20373,"Washington DC","false","USA"
"1522",20745,"Washington DC","false","USA"
"1523",37246,"Nashville","false","USA"
"1524",37064,"Nashville","false","USA"
"1525",37122,"Nashville","false","USA"
"1526",37213,"Nashville","false","USA"
"1527",37219,"Nashville","true","USA"
"1528",37228,"Nashville","false","USA"
"1529",37015,"Nashville","false","USA"
"1530",37206,"Nashville","false","USA"
"1531",37209,"Nashville","false","USA"
"1532",37086,"Nashville","false","USA"
"1533",37220,"Nashville","false","USA"
"1534",37214,"Nashville","false","USA"
"1535",37143,"Nashville","false","USA"
"1536",37201,"Nashville","true","USA"
"1537",37076,"Nashville","false","USA"
"1538",37027,"Nashville","false","USA"
"1539",37208,"Nashville","false","USA"
"1540",37240,"Nashville","false","USA"
"1541",37205,"Nashville","false","USA"
"1542",37075,"Nashville","false","USA"
"1543",37210,"Nashville","false","USA"
"1544",37138,"Nashville","false","USA"
"1545",37080,"Nashville","false","USA"
"1546",37217,"Nashville","false","USA"
"1547",37115,"Nashville","false","USA"
"1548",37135,"Nashville","false","USA"
"1549",37204,"Nashville","false","USA"
"1550",37189,"Nashville","false","USA"
"1551",37203,"Nashville","false","USA"
"1552",37218,"Nashville","false","USA"
"1553",37212,"Nashville","false","USA"
"1554",37207,"Nashville","false","USA"
"1555",37216,"Nashville","false","USA"
"1556",37072,"Nashville","false","USA"
"1557",37211,"Nashville","false","USA"
"1558",37013,"Nashville","false","USA"
"1559",37215,"Nashville","false","USA"
"1560",37082,"Nashville","false","USA"
"1561",37221,"Nashville","false","USA"
"1562",37243,"Nashville","false","USA"
"1563",37073,"Nashville","false","USA"
"1564",37062,"Nashville","false","USA"
"1565",73111,"Oklahoma City","false","USA"
"1566",73097,"Oklahoma City","false","USA"
"1567",73142,"Oklahoma City","false","USA"
"1568",73012,"Oklahoma City","false","USA"
"1569",73105,"Oklahoma City","false","USA"
"1570",73071,"Oklahoma City","false","USA"
"1571",73106,"Oklahoma City","false","USA"
"1572",73110,"Oklahoma City","false","USA"
"1573",73112,"Oklahoma City","false","USA"
"1574",73115,"Oklahoma City","false","USA"
"1575",73162,"Oklahoma City","false","USA"
"1576",73130,"Oklahoma City","false","USA"
"1577",73103,"Oklahoma City","false","USA"
"1578",73170,"Oklahoma City","false","USA"
"1579",73134,"Oklahoma City","false","USA"
"1580",73139,"Oklahoma City","false","USA"
"1581",73149,"Oklahoma City","false","USA"
"1582",73169,"Oklahoma City","false","USA"
"1583",74851,"Oklahoma City","false","USA"
"1584",73121,"Oklahoma City","false","USA"
"1585",73064,"Oklahoma City","false","USA"
"1586",73020,"Oklahoma City","false","USA"
"1587",73151,"Oklahoma City","false","USA"
"1588",73179,"Oklahoma City","false","USA"
"1589",73114,"Oklahoma City","false","USA"
"1590",73129,"Oklahoma City","false","USA"
"1591",73118,"Oklahoma City","false","USA"
"1592",73109,"Oklahoma City","false","USA"
"1593",73102,"Oklahoma City","true","USA"
"1594",73117,"Oklahoma City","false","USA"
"1595",73141,"Oklahoma City","false","USA"
"1596",73003,"Oklahoma City","false","USA"
"1597",73007,"Oklahoma City","false","USA"
"1598",73013,"Oklahoma City","false","USA"
"1599",73008,"Oklahoma City","false","USA"
"1600",73036,"Oklahoma City","false","USA"
"1601",73128,"Oklahoma City","false","USA"
"1602",73119,"Oklahoma City","false","USA"
"1603",73099,"Oklahoma City","false","USA"
"1604",73078,"Oklahoma City","false","USA"
"1605",73107,"Oklahoma City","false","USA"
"1606",73090,"Oklahoma City","false","USA"
"1607",73150,"Oklahoma City","false","USA"
"1608",73160,"Oklahoma City","false","USA"
"1609",73159,"Oklahoma City","false","USA"
"1610",73120,"Oklahoma City","false","USA"
"1611",73122,"Oklahoma City","false","USA"
"1612",73135,"Oklahoma City","false","USA"
"1613",73116,"Oklahoma City","false","USA"
"1614",73104,"Oklahoma City","false","USA"
"1615",73145,"Oklahoma City","false","USA"
"1616",73131,"Oklahoma City","false","USA"
"1617",73132,"Oklahoma City","false","USA"
"1618",73108,"Oklahoma City","false","USA"
"1619",74857,"Oklahoma City","false","USA"
"1620",73165,"Oklahoma City","false","USA"
"1621",73173,"Oklahoma City","false","USA"
"1622",73034,"Oklahoma City","false","USA"
"1623",73054,"Oklahoma City","false","USA"
"1624",73065,"Oklahoma City","false","USA"
"1625",73066,"Oklahoma City","false","USA"
"1626",73072,"Oklahoma City","false","USA"
"1627",73089,"Oklahoma City","false","USA"
"1628",73049,"Oklahoma City","false","USA"
"1629",73127,"Oklahoma City","false","USA"
"1630",73026,"Oklahoma City","false","USA"
"1631",73084,"Oklahoma City","false","USA"
"1632",79916,"El Paso","false","USA"
"1633",79938,"El Paso","false","USA"
"1634",79920,"El Paso","false","USA"
"1635",79924,"El Paso","false","USA"
"1636",79902,"El Paso","false","USA"
"1637",79911,"El Paso","false","USA"
"1638",88008,"El Paso","false","USA"
"1639",79922,"El Paso","false","USA"
"1640",79901,"El Paso","true","USA"
"1641",79906,"El Paso","false","USA"
"1642",79905,"El Paso","false","USA"
"1643",79821,"El Paso","false","USA"
"1644",79903,"El Paso","false","USA"
"1645",79904,"El Paso","false","USA"
"1646",79907,"El Paso","false","USA"
"1647",79908,"El Paso","false","USA"
"1648",79928,"El Paso","false","USA"
"1649",79915,"El Paso","false","USA"
"1650",79925,"El Paso","false","USA"
"1651",79927,"El Paso","false","USA"
"1652",79930,"El Paso","false","USA"
"1653",79934,"El Paso","false","USA"
"1654",79935,"El Paso","false","USA"
"1655",79936,"El Paso","false","USA"
"1656",88063,"El Paso","false","USA"
"1657",79912,"El Paso","false","USA"
"1658",79932,"El Paso","false","USA"
"1659",79835,"El Paso","false","USA"
"1660",88081,"El Paso","false","USA"
"1661",2141,"Boston","false","USA"
"1662",2139,"Boston","false","USA"
"1663",2111,"Boston","false","USA"
"1664",2132,"Boston","false","USA"
"1665",2110,"Boston","true","USA"
"1666",2215,"Boston","false","USA"
"1667",2199,"Boston","false","USA"
"1668",2108,"Boston","false","USA"
"1669",2163,"Boston","false","USA"
"1670",2118,"Boston","false","USA"
"1671",2131,"Boston","false","USA"
"1672",2127,"Boston","false","USA"
"1673",2026,"Boston","false","USA"
"1674",2021,"Boston","false","USA"
"1675",2142,"Boston","false","USA"
"1676",2115,"Boston","false","USA"
"1677",2138,"Boston","false","USA"
"1678",2492,"Boston","false","USA"
"1679",2210,"Boston","false","USA"
"1680",2135,"Boston","false","USA"
"1681",2149,"Boston","false","USA"
"1682",2467,"Boston","false","USA"
"1683",2134,"Boston","false","USA"
"1684",2116,"Boston","false","USA"
"1685",2128,"Boston","false","USA"
"1686",2124,"Boston","false","USA"
"1687",2171,"Boston","false","USA"
"1688",2126,"Boston","false","USA"
"1689",2150,"Boston","false","USA"
"1690",2152,"Boston","false","USA"
"1691",2186,"Boston","false","USA"
"1692",2109,"Boston","true","USA"
"1693",2121,"Boston","false","USA"
"1694",2122,"Boston","false","USA"
"1695",2125,"Boston","false","USA"
"1696",2130,"Boston","false","USA"
"1697",2136,"Boston","false","USA"
"1698",2143,"Boston","false","USA"
"1699",2145,"Boston","false","USA"
"1700",2114,"Boston","false","USA"
"1701",2119,"Boston","false","USA"
"1702",2120,"Boston","false","USA"
"1703",2445,"Boston","false","USA"
"1704",2459,"Boston","false","USA"
"1705",2472,"Boston","false","USA"
"1706",2446,"Boston","false","USA"
"1707",2203,"Boston","false","USA"
"1708",2113,"Boston","false","USA"
"1709",2129,"Boston","false","USA"
"1710",2151,"Boston","false","USA"
"1711",2458,"Boston","false","USA"
"1712",97205,"Portland","false","USA"
"1713",97232,"Portland","false","USA"
"1714",97214,"Portland","false","USA"
"1715",97208,"Portland","false","USA"
"1716",97204,"Portland","true","USA"
"1717",97216,"Portland","false","USA"
"1718",97217,"Portland","false","USA"
"1719",98660,"Portland","false","USA"
"1720",97225,"Portland","false","USA"
"1721",97212,"Portland","false","USA"
"1722",97080,"Portland","false","USA"
"1723",97215,"Portland","false","USA"
"1724",97233,"Portland","false","USA"
"1725",98664,"Portland","false","USA"
"1726",97034,"Portland","false","USA"
"1727",97203,"Portland","false","USA"
"1728",97223,"Portland","false","USA"
"1729",97210,"Portland","false","USA"
"1730",97201,"Portland","false","USA"
"1731",97229,"Portland","false","USA"
"1732",97086,"Portland","false","USA"
"1733",97231,"Portland","false","USA"
"1734",97221,"Portland","false","USA"
"1735",97218,"Portland","false","USA"
"1736",97239,"Portland","false","USA"
"1737",98683,"Portland","false","USA"
"1738",97030,"Portland","false","USA"
"1739",97035,"Portland","false","USA"
"1740",98661,"Portland","false","USA"
"1741",97202,"Portland","false","USA"
"1742",97206,"Portland","false","USA"
"1743",97211,"Portland","false","USA"
"1744",97236,"Portland","false","USA"
"1745",97227,"Portland","false","USA"
"1746",97230,"Portland","false","USA"
"1747",97219,"Portland","false","USA"
"1748",97220,"Portland","false","USA"
"1749",97213,"Portland","false","USA"
"1750",97222,"Portland","false","USA"
"1751",97266,"Portland","false","USA"
"1752",97209,"Portland","false","USA"
"1753",89143,"Las Vegas","false","USA"
"1754",89025,"Las Vegas","false","USA"
"1755",89149,"Las Vegas","false","USA"
"1756",89085,"Las Vegas","false","USA"
"1757",89101,"Las Vegas","true","USA"
"1758",89109,"Las Vegas","false","USA"
"1759",89138,"Las Vegas","false","USA"
"1760",89124,"Las Vegas","false","USA"
"1761",89128,"Las Vegas","false","USA"
"1762",89031,"Las Vegas","false","USA"
"1763",89135,"Las Vegas","false","USA"
"1764",89030,"Las Vegas","false","USA"
"1765",89169,"Las Vegas","false","USA"
"1766",89166,"Las Vegas","false","USA"
"1767",89032,"Las Vegas","false","USA"
"1768",89134,"Las Vegas","false","USA"
"1769",89110,"Las Vegas","false","USA"
"1770",89131,"Las Vegas","false","USA"
"1771",89129,"Las Vegas","false","USA"
"1772",89115,"Las Vegas","false","USA"
"1773",89142,"Las Vegas","false","USA"
"1774",89145,"Las Vegas","false","USA"
"1775",89107,"Las Vegas","false","USA"
"1776",89106,"Las Vegas","false","USA"
"1777",89146,"Las Vegas","false","USA"
"1778",89130,"Las Vegas","false","USA"
"1779",89156,"Las Vegas","false","USA"
"1780",89144,"Las Vegas","false","USA"
"1781",89117,"Las Vegas","false","USA"
"1782",89108,"Las Vegas","false","USA"
"1783",89084,"Las Vegas","false","USA"
"1784",89102,"Las Vegas","false","USA"
"1785",89104,"Las Vegas","false","USA"
"1786",89121,"Las Vegas","false","USA"
"1787",48233,"Detroit","false","USA"
"1788",48091,"Detroit","false","USA"
"1789",48216,"Detroit","false","USA"
"1790",48225,"Detroit","false","USA"
"1791",48227,"Detroit","false","USA"
"1792",48214,"Detroit","false","USA"
"1793",48220,"Detroit","false","USA"
"1794",48237,"Detroit","false","USA"
"1795",48239,"Detroit","false","USA"
"1796",48230,"Detroit","false","USA"
"1797",48226,"Detroit","true","USA"
"1798",48122,"Detroit","false","USA"
"1799",48127,"Detroit","false","USA"
"1800",48215,"Detroit","false","USA"
"1801",48030,"Detroit","false","USA"
"1802",48205,"Detroit","false","USA"
"1803",48204,"Detroit","false","USA"
"1804",48021,"Detroit","false","USA"
"1805",48211,"Detroit","false","USA"
"1806",48128,"Detroit","false","USA"
"1807",48210,"Detroit","false","USA"
"1808",48212,"Detroit","false","USA"
"1809",48243,"Detroit","true","USA"
"1810",48213,"Detroit","false","USA"
"1811",48126,"Detroit","false","USA"
"1812",48146,"Detroit","false","USA"
"1813",48218,"Detroit","false","USA"
"1814",48202,"Detroit","false","USA"
"1815",48206,"Detroit","false","USA"
"1816",48217,"Detroit","false","USA"
"1817",48201,"Detroit","false","USA"
"1818",48224,"Detroit","false","USA"
"1819",48221,"Detroit","false","USA"
"1820",48207,"Detroit","false","USA"
"1821",48208,"Detroit","false","USA"
"1822",48209,"Detroit","false","USA"
"1823",48240,"Detroit","false","USA"
"1824",48228,"Detroit","false","USA"
"1825",48229,"Detroit","false","USA"
"1826",48203,"Detroit","false","USA"
"1827",48120,"Detroit","false","USA"
"1828",48075,"Detroit","false","USA"
"1829",48089,"Detroit","false","USA"
"1830",48236,"Detroit","false","USA"
"1831",48238,"Detroit","false","USA"
"1832",48223,"Detroit","false","USA"
"1833",48033,"Detroit","false","USA"
"1834",48219,"Detroit","false","USA"
"1835",48234,"Detroit","false","USA"
"1836",48235,"Detroit","false","USA"
"1837",38053,"Memphis","false","USA"
"1838",38126,"Memphis","false","USA"
"1839",38132,"Memphis","false","USA"
"1840",38141,"Memphis","false","USA"
"1841",38152,"Memphis","false","USA"
"1842",38680,"Memphis","false","USA"
"1843",38671,"Memphis","false","USA"
"1844",38114,"Memphis","false","USA"
"1845",38139,"Memphis","false","USA"
"1846",72376,"Memphis","false","USA"
"1847",38115,"Memphis","false","USA"
"1848",38108,"Memphis","false","USA"
"1849",38128,"Memphis","false","USA"
"1850",38116,"Memphis","false","USA"
"1851",38131,"Memphis","false","USA"
"1852",38138,"Memphis","false","USA"
"1853",38106,"Memphis","false","USA"
"1854",38654,"Memphis","false","USA"
"1855",38018,"Memphis","false","USA"
"1856",38016,"Memphis","false","USA"
"1857",38112,"Memphis","false","USA"
"1858",38104,"Memphis","false","USA"
"1859",38120,"Memphis","false","USA"
"1860",38107,"Memphis","false","USA"
"1861",38109,"Memphis","false","USA"
"1862",38133,"Memphis","false","USA"
"1863",38119,"Memphis","false","USA"
"1864",38135,"Memphis","false","USA"
"1865",38127,"Memphis","false","USA"
"1866",38118,"Memphis","false","USA"
"1867",38117,"Memphis","false","USA"
"1868",38105,"Memphis","false","USA"
"1869",38134,"Memphis","false","USA"
"1870",38111,"Memphis","false","USA"
"1871",38125,"Memphis","false","USA"
"1872",38002,"Memphis","false","USA"
"1873",72301,"Memphis","false","USA"
"1874",38641,"Memphis","false","USA"
"1875",38122,"Memphis","false","USA"
"1876",38103,"Memphis","true","USA"
"1877",38028,"Memphis","false","USA"
"1878",40025,"Louisville","false","USA"
"1879",40231,"Louisville","false","USA"
"1880",40041,"Louisville","false","USA"
"1881",40071,"Louisville","false","USA"
"1882",40280,"Louisville","false","USA"
"1883",40211,"Louisville","false","USA"
"1884",40204,"Louisville","false","USA"
"1885",40210,"Louisville","false","USA"
"1886",47150,"Louisville","false","USA"
"1887",40165,"Louisville","false","USA"
"1888",40014,"Louisville","false","USA"
"1889",40118,"Louisville","false","USA"
"1890",40213,"Louisville","false","USA"
"1891",40215,"Louisville","false","USA"
"1892",40241,"Louisville","false","USA"
"1893",47117,"Louisville","false","USA"
"1894",40208,"Louisville","false","USA"
"1895",40243,"Louisville","false","USA"
"1896",40291,"Louisville","false","USA"
"1897",40203,"Louisville","false","USA"
"1898",40228,"Louisville","false","USA"
"1899",40299,"Louisville","false","USA"
"1900",40056,"Louisville","false","USA"
"1901",40109,"Louisville","false","USA"
"1902",40059,"Louisville","false","USA"
"1903",40067,"Louisville","false","USA"
"1904",40245,"Louisville","false","USA"
"1905",40258,"Louisville","false","USA"
"1906",40272,"Louisville","false","USA"
"1907",40217,"Louisville","false","USA"
"1908",40206,"Louisville","false","USA"
"1909",40177,"Louisville","false","USA"
"1910",40202,"Louisville","true","USA"
"1911",40205,"Louisville","false","USA"
"1912",40214,"Louisville","false","USA"
"1913",40216,"Louisville","false","USA"
"1914",40219,"Louisville","false","USA"
"1915",40222,"Louisville","false","USA"
"1916",47129,"Louisville","false","USA"
"1917",47130,"Louisville","false","USA"
"1918",40209,"Louisville","false","USA"
"1919",40023,"Louisville","false","USA"
"1920",40047,"Louisville","false","USA"
"1921",40220,"Louisville","false","USA"
"1922",40207,"Louisville","false","USA"
"1923",40229,"Louisville","false","USA"
"1924",40218,"Louisville","false","USA"
"1925",40242,"Louisville","false","USA"
"1926",40212,"Louisville","false","USA"
"1927",40223,"Louisville","false","USA"
"1928",21217,"Baltimore","false","USA"
"1929",21231,"Baltimore","false","USA"
"1930",21251,"Baltimore","false","USA"
"1931",21216,"Baltimore","false","USA"
"1932",21227,"Baltimore","false","USA"
"1933",21234,"Baltimore","false","USA"
"1934",21212,"Baltimore","false","USA"
"1935",21201,"Baltimore","true","USA"
"1936",21211,"Baltimore","false","USA"
"1937",21225,"Baltimore","false","USA"
"1938",21228,"Baltimore","false","USA"
"1939",21222,"Baltimore","false","USA"
"1940",21229,"Baltimore","false","USA"
"1941",21230,"Baltimore","false","USA"
"1942",21206,"Baltimore","false","USA"
"1943",21210,"Baltimore","false","USA"
"1944",21237,"Baltimore","false","USA"
"1945",21226,"Baltimore","false","USA"
"1946",21215,"Baltimore","false","USA"
"1947",21218,"Baltimore","false","USA"
"1948",21208,"Baltimore","false","USA"
"1949",21236,"Baltimore","false","USA"
"1950",21213,"Baltimore","false","USA"
"1951",21209,"Baltimore","false","USA"
"1952",21223,"Baltimore","false","USA"
"1953",21202,"Baltimore","true","USA"
"1954",21224,"Baltimore","false","USA"
"1955",21205,"Baltimore","false","USA"
"1956",21239,"Baltimore","false","USA"
"1957",21207,"Baltimore","false","USA"
"1958",21214,"Baltimore","false","USA"
"1959",53218,"Milwaukee","false","USA"
"1960",53223,"Milwaukee","false","USA"
"1961",53205,"Milwaukee","false","USA"
"1962",53206,"Milwaukee","false","USA"
"1963",53227,"Milwaukee","false","USA"
"1964",53203,"Milwaukee","false","USA"
"1965",53215,"Milwaukee","false","USA"
"1966",53208,"Milwaukee","false","USA"
"1967",53226,"Milwaukee","false","USA"
"1968",53228,"Milwaukee","false","USA"
"1969",53220,"Milwaukee","false","USA"
"1970",53295,"Milwaukee","false","USA"
"1971",53221,"Milwaukee","false","USA"
"1972",53202,"Milwaukee","true","USA"
"1973",53217,"Milwaukee","false","USA"
"1974",53216,"Milwaukee","false","USA"
"1975",53207,"Milwaukee","false","USA"
"1976",53225,"Milwaukee","false","USA"
"1977",53212,"Milwaukee","false","USA"
"1978",53214,"Milwaukee","false","USA"
"1979",53204,"Milwaukee","false","USA"
"1980",53209,"Milwaukee","false","USA"
"1981",53222,"Milwaukee","false","USA"
"1982",53210,"Milwaukee","false","USA"
"1983",53224,"Milwaukee","false","USA"
"1984",53219,"Milwaukee","false","USA"
"1985",53213,"Milwaukee","false","USA"
"1986",53092,"Milwaukee","false","USA"
"1987",53233,"Milwaukee","false","USA"
"1988",53235,"Milwaukee","false","USA"
"1989",53154,"Milwaukee","false","USA"
"1990",53007,"Milwaukee","false","USA"
"1991",53211,"Milwaukee","false","USA"
"1992",53022,"Milwaukee","false","USA"
"1993",53051,"Milwaukee","false","USA"
"1994",53097,"Milwaukee","false","USA"
"1995",87109,"Albuquerque","false","USA"
"1996",87121,"Albuquerque","false","USA"
"1997",87116,"Albuquerque","false","USA"
"1998",87120,"Albuquerque","false","USA"
"1999",87048,"Albuquerque","false","USA"
"2000",87111,"Albuquerque","false","USA"
"2001",87108,"Albuquerque","false","USA"
"2002",87117,"Albuquerque","false","USA"
"2003",87104,"Albuquerque","false","USA"
"2004",87107,"Albuquerque","false","USA"
"2005",87123,"Albuquerque","false","USA"
"2006",87105,"Albuquerque","false","USA"
"2007",87110,"Albuquerque","false","USA"
"2008",87122,"Albuquerque","false","USA"
"2009",87124,"Albuquerque","false","USA"
"2010",87112,"Albuquerque","false","USA"
"2011",87113,"Albuquerque","false","USA"
"2012",87106,"Albuquerque","false","USA"
"2013",87102,"Albuquerque","true","USA"
"2014",87114,"Albuquerque","false","USA"
"2015",85726,"Tucson","false","USA"
"2016",85629,"Tucson","false","USA"
"2017",85750,"Tucson","false","USA"
"2018",85724,"Tucson","false","USA"
"2019",85707,"Tucson","false","USA"
"2020",85641,"Tucson","false","USA"
"2021",85701,"Tucson","true","USA"
"2022",85748,"Tucson","false","USA"
"2023",85730,"Tucson","false","USA"
"2024",85712,"Tucson","false","USA"
"2025",85747,"Tucson","false","USA"
"2026",85718,"Tucson","false","USA"
"2027",85705,"Tucson","false","USA"
"2028",85723,"Tucson","false","USA"
"2029",85746,"Tucson","false","USA"
"2030",85714,"Tucson","false","USA"
"2031",85715,"Tucson","false","USA"
"2032",85719,"Tucson","false","USA"
"2033",85741,"Tucson","false","USA"
"2034",85716,"Tucson","false","USA"
"2035",85704,"Tucson","false","USA"
"2036",85708,"Tucson","false","USA"
"2037",85710,"Tucson","false","USA"
"2038",85743,"Tucson","false","USA"
"2039",85749,"Tucson","false","USA"
"2040",85756,"Tucson","false","USA"
"2041",85706,"Tucson","false","USA"
"2042",85745,"Tucson","false","USA"
"2043",85711,"Tucson","false","USA"
"2044",85713,"Tucson","false","USA"
"2045",93637,"Fresno","false","USA"
"2046",93636,"Fresno","false","USA"
"2047",93701,"Fresno","false","USA"
"2048",93727,"Fresno","false","USA"
"2049",93726,"Fresno","false","USA"
"2050",93725,"Fresno","false","USA"
"2051",93650,"Fresno","false","USA"
"2052",93721,"Fresno","true","USA"
"2053",93705,"Fresno","false","USA"
"2054",93611,"Fresno","false","USA"
"2055",93720,"Fresno","false","USA"
"2056",93723,"Fresno","false","USA"
"2057",93728,"Fresno","false","USA"
"2058",93706,"Fresno","false","USA"
"2059",93703,"Fresno","false","USA"
"2060",93704,"Fresno","false","USA"
"2061",93710,"Fresno","false","USA"
"2062",93711,"Fresno","false","USA"
"2063",93612,"Fresno","false","USA"
"2064",93702,"Fresno","false","USA"
"2065",93722,"Fresno","false","USA"
"2066",93730,"Fresno","false","USA"
"2067",93619,"Fresno","false","USA"
"2068",95835,"Sacramento","false","USA"
"2069",95816,"Sacramento","false","USA"
"2070",95825,"Sacramento","false","USA"
"2071",95819,"Sacramento","false","USA"
"2072",95829,"Sacramento","false","USA"
"2073",95864,"Sacramento","false","USA"
"2074",95691,"Sacramento","false","USA"
"2075",95660,"Sacramento","false","USA"
"2076",95841,"Sacramento","false","USA"
"2077",95811,"Sacramento","false","USA"
"2078",95828,"Sacramento","false","USA"
"2079",95815,"Sacramento","false","USA"
"2080",95820,"Sacramento","false","USA"
"2081",95605,"Sacramento","false","USA"
"2082",95652,"Sacramento","false","USA"
"2083",95612,"Sacramento","false","USA"
"2084",95833,"Sacramento","false","USA"
"2085",95758,"Sacramento","false","USA"
"2086",95814,"Sacramento","true","USA"
"2087",95834,"Sacramento","false","USA"
"2088",95837,"Sacramento","false","USA"
"2089",95673,"Sacramento","false","USA"
"2090",95817,"Sacramento","false","USA"
"2091",95818,"Sacramento","false","USA"
"2092",95822,"Sacramento","false","USA"
"2093",95823,"Sacramento","false","USA"
"2094",95824,"Sacramento","false","USA"
"2095",95826,"Sacramento","false","USA"
"2096",95831,"Sacramento","false","USA"
"2097",95832,"Sacramento","false","USA"
"2098",95838,"Sacramento","false","USA"
"2099",95821,"Sacramento","false","USA"
"2100",95624,"Sacramento","false","USA"
"2101",64112,"Kansas City","false","USA"
"2102",64125,"Kansas City","false","USA"
"2103",64109,"Kansas City","false","USA"
"2104",66118,"Kansas City","false","USA"
"2105",64165,"Kansas City","false","USA"
"2106",64158,"Kansas City","false","USA"
"2107",64114,"Kansas City","false","USA"
"2108",66103,"Kansas City","false","USA"
"2109",64111,"Kansas City","false","USA"
"2110",64123,"Kansas City","false","USA"
"2111",64130,"Kansas City","false","USA"
"2112",64101,"Kansas City","false","USA"
"2113",64102,"Kansas City","false","USA"
"2114",64108,"Kansas City","false","USA"
"2115",64110,"Kansas City","false","USA"
"2116",64117,"Kansas City","false","USA"
"2117",64053,"Kansas City","false","USA"
"2118",64147,"Kansas City","false","USA"
"2119",64154,"Kansas City","false","USA"
"2120",64106,"Kansas City","true","USA"
"2121",64030,"Kansas City","false","USA"
"2122",64192,"Kansas City","false","USA"
"2123",66211,"Kansas City","false","USA"
"2124",64163,"Kansas City","false","USA"
"2125",64145,"Kansas City","false","USA"
"2126",64083,"Kansas City","false","USA"
"2127",64124,"Kansas City","false","USA"
"2128",64132,"Kansas City","false","USA"
"2129",64167,"Kansas City","false","USA"
"2130",64113,"Kansas City","false","USA"
"2131",64116,"Kansas City","false","USA"
"2132",64120,"Kansas City","false","USA"
"2133",64151,"Kansas City","false","USA"
"2134",64138,"Kansas City","false","USA"
"2135",64133,"Kansas City","false","USA"
"2136",64105,"Kansas City","true","USA"
"2137",64128,"Kansas City","false","USA"
"2138",64157,"Kansas City","false","USA"
"2139",64086,"Kansas City","false","USA"
"2140",64149,"Kansas City","false","USA"
"2141",64068,"Kansas City","false","USA"
"2142",66224,"Kansas City","false","USA"
"2143",66115,"Kansas City","false","USA"
"2144",64012,"Kansas City","false","USA"
"2145",64058,"Kansas City","false","USA"
"2146",64050,"Kansas City","false","USA"
"2147",64052,"Kansas City","false","USA"
"2148",64089,"Kansas City","false","USA"
"2149",64081,"Kansas City","false","USA"
"2150",64082,"Kansas City","false","USA"
"2151",64055,"Kansas City","false","USA"
"2152",64079,"Kansas City","false","USA"
"2153",64150,"Kansas City","false","USA"
"2154",64065,"Kansas City","false","USA"
"2155",64139,"Kansas City","false","USA"
"2156",64146,"Kansas City","false","USA"
"2157",64131,"Kansas City","false","USA"
"2158",64161,"Kansas City","false","USA"
"2159",64166,"Kansas City","false","USA"
"2160",64153,"Kansas City","false","USA"
"2161",64164,"Kansas City","false","USA"
"2162",64134,"Kansas City","false","USA"
"2163",64136,"Kansas City","false","USA"
"2164",64137,"Kansas City","false","USA"
"2165",64152,"Kansas City","false","USA"
"2166",64155,"Kansas City","false","USA"
"2167",64126,"Kansas City","false","USA"
"2168",64118,"Kansas City","false","USA"
"2169",66208,"Kansas City","false","USA"
"2170",64119,"Kansas City","false","USA"
"2171",64054,"Kansas City","false","USA"
"2172",66206,"Kansas City","false","USA"
"2173",64064,"Kansas City","false","USA"
"2174",64156,"Kansas City","false","USA"
"2175",64127,"Kansas City","false","USA"
"2176",64129,"Kansas City","false","USA"
"2177",85215,"Mesa","false","USA"
"2178",85203,"Mesa","false","USA"
"2179",85207,"Mesa","false","USA"
"2180",85212,"Mesa","false","USA"
"2181",85224,"Mesa","false","USA"
"2182",85295,"Mesa","false","USA"
"2183",85233,"Mesa","false","USA"
"2184",85296,"Mesa","false","USA"
"2185",85201,"Mesa","false","USA"
"2186",85256,"Mesa","false","USA"
"2187",85140,"Mesa","false","USA"
"2188",85142,"Mesa","false","USA"
"2189",85205,"Mesa","false","USA"
"2190",85213,"Mesa","false","USA"
"2191",85206,"Mesa","false","USA"
"2192",85210,"Mesa","false","USA"
"2193",85202,"Mesa","false","USA"
"2194",85283,"Mesa","false","USA"
"2195",85282,"Mesa","false","USA"
"2196",85204,"Mesa","false","USA"
"2197",85208,"Mesa","false","USA"
"2198",85209,"Mesa","false","USA"
"2199",85225,"Mesa","false","USA"
"2200",85281,"Mesa","false","USA"
"2201",85120,"Mesa","false","USA"
"2202",85234,"Mesa","false","USA"
"2203",30332,"Atlanta","false","USA"
"2204",30326,"Atlanta","false","USA"
"2205",30334,"Atlanta","false","USA"
"2206",30337,"Atlanta","false","USA"
"2207",30363,"Atlanta","false","USA"
"2208",30322,"Atlanta","false","USA"
"2209",30308,"Atlanta","false","USA"
"2210",30307,"Atlanta","false","USA"
"2211",30349,"Atlanta","false","USA"
"2212",30126,"Atlanta","false","USA"
"2213",30080,"Atlanta","false","USA"
"2214",30305,"Atlanta","false","USA"
"2215",30315,"Atlanta","false","USA"
"2216",30032,"Atlanta","false","USA"
"2217",30327,"Atlanta","false","USA"
"2218",30310,"Atlanta","false","USA"
"2219",30030,"Atlanta","false","USA"
"2220",30311,"Atlanta","false","USA"
"2221",30313,"Atlanta","false","USA"
"2222",30309,"Atlanta","false","USA"
"2223",30303,"Atlanta","true","USA"
"2224",30297,"Atlanta","false","USA"
"2225",30342,"Atlanta","false","USA"
"2226",30339,"Atlanta","false","USA"
"2227",30331,"Atlanta","false","USA"
"2228",30336,"Atlanta","false","USA"
"2229",30344,"Atlanta","false","USA"
"2230",30317,"Atlanta","false","USA"
"2231",30329,"Atlanta","false","USA"
"2232",30288,"Atlanta","false","USA"
"2233",30082,"Atlanta","false","USA"
"2234",30318,"Atlanta","false","USA"
"2235",30319,"Atlanta","false","USA"
"2236",30324,"Atlanta","false","USA"
"2237",30314,"Atlanta","false","USA"
"2238",30354,"Atlanta","false","USA"
"2239",30033,"Atlanta","false","USA"
"2240",30312,"Atlanta","false","USA"
"2241",30316,"Atlanta","false","USA"
"2242",30306,"Atlanta","false","USA"
"2243",68137,"Omaha","false","USA"
"2244",68118,"Omaha","false","USA"
"2245",68104,"Omaha","false","USA"
"2246",68127,"Omaha","false","USA"
"2247",68132,"Omaha","false","USA"
"2248",68116,"Omaha","false","USA"
"2249",68114,"Omaha","false","USA"
"2250",68105,"Omaha","false","USA"
"2251",68157,"Omaha","false","USA"
"2252",51510,"Omaha","false","USA"
"2253",68131,"Omaha","false","USA"
"2254",68124,"Omaha","false","USA"
"2255",68130,"Omaha","false","USA"
"2256",68154,"Omaha","false","USA"
"2257",51501,"Omaha","false","USA"
"2258",68178,"Omaha","false","USA"
"2259",68110,"Omaha","false","USA"
"2260",68122,"Omaha","false","USA"
"2261",68106,"Omaha","false","USA"
"2262",68010,"Omaha","false","USA"
"2263",68135,"Omaha","false","USA"
"2264",68111,"Omaha","false","USA"
"2265",68144,"Omaha","false","USA"
"2266",68022,"Omaha","false","USA"
"2267",68069,"Omaha","false","USA"
"2268",68108,"Omaha","false","USA"
"2269",68007,"Omaha","false","USA"
"2270",68005,"Omaha","false","USA"
"2271",68112,"Omaha","false","USA"
"2272",68107,"Omaha","false","USA"
"2273",68142,"Omaha","false","USA"
"2274",68147,"Omaha","false","USA"
"2275",68117,"Omaha","false","USA"
"2276",68152,"Omaha","false","USA"
"2277",68164,"Omaha","false","USA"
"2278",51526,"Omaha","false","USA"
"2279",68128,"Omaha","false","USA"
"2280",68138,"Omaha","false","USA"
"2281",68134,"Omaha","false","USA"
"2282",68136,"Omaha","false","USA"
"2283",68102,"Omaha","true","USA"
"2284",80938,"Colorado Springs","false","USA"
"2285",80927,"Colorado Springs","false","USA"
"2286",80921,"Colorado Springs","false","USA"
"2287",80924,"Colorado Springs","false","USA"
"2288",80914,"Colorado Springs","false","USA"
"2289",80951,"Colorado Springs","false","USA"
"2290",80831,"Colorado Springs","false","USA"
"2291",80840,"Colorado Springs","false","USA"
"2292",80904,"Colorado Springs","false","USA"
"2293",80809,"Colorado Springs","false","USA"
"2294",80906,"Colorado Springs","false","USA"
"2295",80903,"Colorado Springs","true","USA"
"2296",80920,"Colorado Springs","false","USA"
"2297",80915,"Colorado Springs","false","USA"
"2298",80918,"Colorado Springs","false","USA"
"2299",80909,"Colorado Springs","false","USA"
"2300",80939,"Colorado Springs","false","USA"
"2301",80910,"Colorado Springs","false","USA"
"2302",80908,"Colorado Springs","false","USA"
"2303",80905,"Colorado Springs","false","USA"
"2304",80923,"Colorado Springs","false","USA"
"2305",80922,"Colorado Springs","false","USA"
"2306",80911,"Colorado Springs","false","USA"
"2307",80916,"Colorado Springs","false","USA"
"2308",80929,"Colorado Springs","false","USA"
"2309",80907,"Colorado Springs","false","USA"
"2310",80926,"Colorado Springs","false","USA"
"2311",80925,"Colorado Springs","false","USA"
"2312",80829,"Colorado Springs","false","USA"
"2313",80919,"Colorado Springs","false","USA"
"2314",80917,"Colorado Springs","false","USA"
"2315",27587,"Raleigh","false","USA"
"2316",27605,"Raleigh","false","USA"
"2317",27511,"Raleigh","false","USA"
"2318",27603,"Raleigh","false","USA"
"2319",27703,"Raleigh","false","USA"
"2320",27613,"Raleigh","false","USA"
"2321",27513,"Raleigh","false","USA"
"2322",27608,"Raleigh","false","USA"
"2323",27606,"Raleigh","false","USA"
"2324",27545,"Raleigh","false","USA"
"2325",27615,"Raleigh","false","USA"
"2326",27560,"Raleigh","false","USA"
"2327",27529,"Raleigh","false","USA"
"2328",27617,"Raleigh","false","USA"
"2329",27601,"Raleigh","true","USA"
"2330",27604,"Raleigh","false","USA"
"2331",27591,"Raleigh","false","USA"
"2332",27610,"Raleigh","false","USA"
"2333",27607,"Raleigh","false","USA"
"2334",27614,"Raleigh","false","USA"
"2335",27609,"Raleigh","false","USA"
"2336",27518,"Raleigh","false","USA"
"2337",27616,"Raleigh","false","USA"
"2338",27612,"Raleigh","false","USA"
"2339",90822,"Long Beach","false","USA"
"2340",90803,"Long Beach","false","USA"
"2341",90712,"Long Beach","false","USA"
"2342",90831,"Long Beach","false","USA"
"2343",90720,"Long Beach","false","USA"
"2344",90808,"Long Beach","false","USA"
"2345",90810,"Long Beach","false","USA"
"2346",90713,"Long Beach","false","USA"
"2347",90813,"Long Beach","false","USA"
"2348",90814,"Long Beach","false","USA"
"2349",90807,"Long Beach","false","USA"
"2350",90744,"Long Beach","false","USA"
"2351",90804,"Long Beach","false","USA"
"2352",90815,"Long Beach","false","USA"
"2353",90630,"Long Beach","false","USA"
"2354",90806,"Long Beach","false","USA"
"2355",90755,"Long Beach","false","USA"
"2356",90805,"Long Beach","false","USA"
"2357",90802,"Long Beach","false","USA"
"2358",90731,"Long Beach","false","USA"
"2359",90740,"Long Beach","false","USA"
"2360",90706,"Long Beach","false","USA"
"2361",90715,"Long Beach","false","USA"
"2362",90716,"Long Beach","false","USA"
"2363",90723,"Long Beach","false","USA"
"2364",90221,"Long Beach","false","USA"
"2365",23461,"Virginia Beach","false","USA"
"2366",23460,"Virginia Beach","false","USA"
"2367",23459,"Virginia Beach","false","USA"
"2368",23325,"Virginia Beach","false","USA"
"2369",23456,"Virginia Beach","false","USA"
"2370",27927,"Virginia Beach","false","USA"
"2371",23457,"Virginia Beach","false","USA"
"2372",23464,"Virginia Beach","false","USA"
"2373",23518,"Virginia Beach","false","USA"
"2374",23462,"Virginia Beach","false","USA"
"2375",23320,"Virginia Beach","false","USA"
"2376",23452,"Virginia Beach","false","USA"
"2377",23453,"Virginia Beach","false","USA"
"2378",27950,"Virginia Beach","false","USA"
"2379",23455,"Virginia Beach","false","USA"
"2380",23502,"Virginia Beach","false","USA"
"2381",23322,"Virginia Beach","false","USA"
"2382",23454,"Virginia Beach","false","USA"
"2383",23451,"Virginia Beach","false","USA"
"2384",33142,"Miami","false","USA"
"2385",33146,"Miami","false","USA"
"2386",33139,"Miami","false","USA"
"2387",33136,"Miami","false","USA"
"2388",33130,"Miami","false","USA"
"2389",33131,"Miami","true","USA"
"2390",33149,"Miami","false","USA"
"2391",33144,"Miami","false","USA"
"2392",33137,"Miami","false","USA"
"2393",33129,"Miami","false","USA"
"2394",33101,"Miami","false","USA"
"2395",33132,"Miami","false","USA"
"2396",33150,"Miami","false","USA"
"2397",33147,"Miami","false","USA"
"2398",33133,"Miami","false","USA"
"2399",33128,"Miami","false","USA"
"2400",33145,"Miami","false","USA"
"2401",33127,"Miami","false","USA"
"2402",33126,"Miami","false","USA"
"2403",33140,"Miami","false","USA"
"2404",33141,"Miami","false","USA"
"2405",33135,"Miami","false","USA"
"2406",33122,"Miami","false","USA"
"2407",33109,"Miami","false","USA"
"2408",33138,"Miami","false","USA"
"2409",33125,"Miami","false","USA"
"2410",33134,"Miami","false","USA"
"2411",94613,"Oakland","false","USA"
"2412",94720,"Oakland","false","USA"
"2413",94708,"Oakland","false","USA"
"2414",94563,"Oakland","false","USA"
"2415",94606,"Oakland","false","USA"
"2416",94546,"Oakland","false","USA"
"2417",94610,"Oakland","false","USA"
"2418",94618,"Oakland","false","USA"
"2419",94621,"Oakland","false","USA"
"2420",94702,"Oakland","false","USA"
"2421",94502,"Oakland","false","USA"
"2422",94703,"Oakland","false","USA"
"2423",94501,"Oakland","false","USA"
"2424",94577,"Oakland","false","USA"
"2425",94612,"Oakland","true","USA"
"2426",94619,"Oakland","false","USA"
"2427",94704,"Oakland","false","USA"
"2428",94705,"Oakland","false","USA"
"2429",94602,"Oakland","false","USA"
"2430",94603,"Oakland","false","USA"
"2431",94605,"Oakland","false","USA"
"2432",94607,"Oakland","false","USA"
"2433",94608,"Oakland","false","USA"
"2434",94611,"Oakland","false","USA"
"2435",94601,"Oakland","false","USA"
"2436",94609,"Oakland","false","USA"
"2437",55403,"Minneapolis","false","USA"
"2438",55422,"Minneapolis","false","USA"
"2439",55401,"Minneapolis","false","USA"
"2440",55409,"Minneapolis","false","USA"
"2441",55114,"Minneapolis","false","USA"
"2442",55455,"Minneapolis","false","USA"
"2443",55435,"Minneapolis","false","USA"
"2444",55411,"Minneapolis","false","USA"
"2445",55419,"Minneapolis","false","USA"
"2446",55407,"Minneapolis","false","USA"
"2447",55454,"Minneapolis","false","USA"
"2448",55410,"Minneapolis","false","USA"
"2449",55116,"Minneapolis","false","USA"
"2450",55415,"Minneapolis","true","USA"
"2451",55113,"Minneapolis","false","USA"
"2452",55105,"Minneapolis","false","USA"
"2453",55421,"Minneapolis","false","USA"
"2454",55104,"Minneapolis","false","USA"
"2455",55408,"Minneapolis","false","USA"
"2456",55412,"Minneapolis","false","USA"
"2457",55424,"Minneapolis","false","USA"
"2458",55423,"Minneapolis","false","USA"
"2459",55414,"Minneapolis","false","USA"
"2460",55418,"Minneapolis","false","USA"
"2461",55416,"Minneapolis","false","USA"
"2462",55406,"Minneapolis","false","USA"
"2463",55450,"Minneapolis","false","USA"
"2464",55417,"Minneapolis","false","USA"
"2465",55429,"Minneapolis","false","USA"
"2466",55402,"Minneapolis","true","USA"
"2467",55111,"Minneapolis","false","USA"
"2468",55430,"Minneapolis","false","USA"
"2469",55108,"Minneapolis","false","USA"
"2470",55404,"Minneapolis","false","USA"
"2471",55405,"Minneapolis","false","USA"
"2472",55413,"Minneapolis","false","USA"
"2473",74134,"Tulsa","false","USA"
"2474",74070,"Tulsa","false","USA"
"2475",74108,"Tulsa","false","USA"
"2476",74128,"Tulsa","false","USA"
"2477",74129,"Tulsa","false","USA"
"2478",74015,"Tulsa","false","USA"
"2479",74119,"Tulsa","true","USA"
"2480",74137,"Tulsa","false","USA"
"2481",74127,"Tulsa","false","USA"
"2482",74136,"Tulsa","false","USA"
"2483",74104,"Tulsa","false","USA"
"2484",74021,"Tulsa","false","USA"
"2485",74055,"Tulsa","false","USA"
"2486",74120,"Tulsa","false","USA"
"2487",74107,"Tulsa","false","USA"
"2488",74126,"Tulsa","false","USA"
"2489",74130,"Tulsa","false","USA"
"2490",74110,"Tulsa","false","USA"
"2491",74008,"Tulsa","false","USA"
"2492",74014,"Tulsa","false","USA"
"2493",74073,"Tulsa","false","USA"
"2494",74135,"Tulsa","false","USA"
"2495",74012,"Tulsa","false","USA"
"2496",74145,"Tulsa","false","USA"
"2497",74146,"Tulsa","false","USA"
"2498",74114,"Tulsa","false","USA"
"2499",74105,"Tulsa","false","USA"
"2500",74106,"Tulsa","false","USA"
"2501",74037,"Tulsa","false","USA"
"2502",74115,"Tulsa","false","USA"
"2503",74117,"Tulsa","false","USA"
"2504",74131,"Tulsa","false","USA"
"2505",74132,"Tulsa","false","USA"
"2506",74112,"Tulsa","false","USA"
"2507",74116,"Tulsa","false","USA"
"2508",74103,"Tulsa","true","USA"
"2509",74133,"Tulsa","false","USA"
"2510",93308,"Bakersfield","false","USA"
"2511",93203,"Bakersfield","false","USA"
"2512",93306,"Bakersfield","false","USA"
"2513",93305,"Bakersfield","false","USA"
"2514",93220,"Bakersfield","false","USA"
"2515",93309,"Bakersfield","false","USA"
"2516",93312,"Bakersfield","false","USA"
"2517",93307,"Bakersfield","false","USA"
"2518",93304,"Bakersfield","false","USA"
"2519",93314,"Bakersfield","false","USA"
"2520",93311,"Bakersfield","false","USA"
"2521",93313,"Bakersfield","false","USA"
"2522",93301,"Bakersfield","true","USA"
"2523",93263,"Bakersfield","false","USA"
"2524",67260,"Wichita","false","USA"
"2525",67223,"Wichita","false","USA"
"2526",67227,"Wichita","false","USA"
"2527",67202,"Wichita","true","USA"
"2528",67207,"Wichita","false","USA"
"2529",67206,"Wichita","false","USA"
"2530",67211,"Wichita","false","USA"
"2531",67067,"Wichita","false","USA"
"2532",67218,"Wichita","false","USA"
"2533",67220,"Wichita","false","USA"
"2534",67228,"Wichita","false","USA"
"2535",67230,"Wichita","false","USA"
"2536",67203,"Wichita","false","USA"
"2537",67217,"Wichita","false","USA"
"2538",67149,"Wichita","false","USA"
"2539",67002,"Wichita","false","USA"
"2540",67226,"Wichita","false","USA"
"2541",67037,"Wichita","false","USA"
"2542",67212,"Wichita","false","USA"
"2543",67215,"Wichita","false","USA"
"2544",67216,"Wichita","false","USA"
"2545",67208,"Wichita","false","USA"
"2546",67204,"Wichita","false","USA"
"2547",67205,"Wichita","false","USA"
"2548",67214,"Wichita","false","USA"
"2549",67210,"Wichita","false","USA"
"2550",67213,"Wichita","false","USA"
"2551",67232,"Wichita","false","USA"
"2552",67235,"Wichita","false","USA"
"2553",67101,"Wichita","false","USA"
"2554",67106,"Wichita","false","USA"
"2555",67209,"Wichita","false","USA"
"2556",67219,"Wichita","false","USA"
"2557",67030,"Wichita","false","USA"
"2558",67052,"Wichita","false","USA"
"2559",76018,"Arlington","false","USA"
"2560",76001,"Arlington","false","USA"
"2561",76013,"Arlington","false","USA"
"2562",76140,"Arlington","false","USA"
"2563",76112,"Arlington","false","USA"
"2564",76063,"Arlington","false","USA"
"2565",76002,"Arlington","false","USA"
"2566",76006,"Arlington","false","USA"
"2567",76010,"Arlington","false","USA"
"2568",75051,"Arlington","false","USA"
"2569",76017,"Arlington","false","USA"
"2570",75052,"Arlington","false","USA"
"2571",76040,"Arlington","false","USA"
"2572",76119,"Arlington","false","USA"
"2573",76120,"Arlington","false","USA"
"2574",76060,"Arlington","false","USA"
"2575",76155,"Arlington","false","USA"
"2576",76014,"Arlington","false","USA"
"2577",76015,"Arlington","false","USA"
"2578",76011,"Arlington","false","USA"
"2579",76012,"Arlington","false","USA"
"2580",75050,"Arlington","false","USA"
"2581",76016,"Arlington","false","USA"
"2582",80013,"Aurora","false","USA"
"2583",80045,"Aurora","false","USA"
"2584",80014,"Aurora","false","USA"
"2585",80231,"Aurora","false","USA"
"2586",80249,"Aurora","false","USA"
"2587",80237,"Aurora","false","USA"
"2588",80016,"Aurora","false","USA"
"2589",80112,"Aurora","false","USA"
"2590",80017,"Aurora","false","USA"
"2591",80010,"Aurora","false","USA"
"2592",80102,"Aurora","false","USA"
"2593",80011,"Aurora","false","USA"
"2594",80012,"Aurora","false","USA"
"2595",80018,"Aurora","false","USA"
"2596",80019,"Aurora","false","USA"
"2597",80238,"Aurora","false","USA"
"2598",80230,"Aurora","false","USA"
"2599",80015,"Aurora","false","USA"
"2600",80137,"Aurora","false","USA"
"2601",80239,"Aurora","false","USA"
"2602",80220,"Aurora","false","USA"
"2603",80247,"Aurora","false","USA"
"2604",80138,"Aurora","false","USA"
"2605",80111,"Aurora","false","USA"
"2606",33620,"Tampa","false","USA"
"2607",33619,"Tampa","false","USA"
"2608",33607,"Tampa","false","USA"
"2609",33616,"Tampa","false","USA"
"2610",33621,"Tampa","false","USA"
"2611",33543,"Tampa","false","USA"
"2612",33637,"Tampa","false","USA"
"2613",33610,"Tampa","false","USA"
"2614",33629,"Tampa","false","USA"
"2615",33617,"Tampa","false","USA"
"2616",33615,"Tampa","false","USA"
"2617",33559,"Tampa","false","USA"
"2618",33592,"Tampa","false","USA"
"2619",33604,"Tampa","false","USA"
"2620",33603,"Tampa","false","USA"
"2621",33602,"Tampa","true","USA"
"2622",33609,"Tampa","false","USA"
"2623",33611,"Tampa","false","USA"
"2624",33613,"Tampa","false","USA"
"2625",33635,"Tampa","false","USA"
"2626",33647,"Tampa","false","USA"
"2627",33614,"Tampa","false","USA"
"2628",33606,"Tampa","false","USA"
"2629",33605,"Tampa","false","USA"
"2630",33618,"Tampa","false","USA"
"2631",33612,"Tampa","false","USA"
"2632",33634,"Tampa","false","USA"
"2633",33544,"Tampa","false","USA"
"2634",70128,"New Orleans","false","USA"
"2635",70139,"New Orleans","true","USA"
"2636",70001,"New Orleans","false","USA"
"2637",70058,"New Orleans","false","USA"
"2638",70163,"New Orleans","false","USA"
"2639",70005,"New Orleans","false","USA"
"2640",70114,"New Orleans","false","USA"
"2641",70118,"New Orleans","false","USA"
"2642",70130,"New Orleans","true","USA"
"2643",70122,"New Orleans","false","USA"
"2644",70125,"New Orleans","false","USA"
"2645",70115,"New Orleans","false","USA"
"2646",70037,"New Orleans","false","USA"
"2647",70113,"New Orleans","false","USA"
"2648",70121,"New Orleans","false","USA"
"2649",70126,"New Orleans","false","USA"
"2650",70129,"New Orleans","false","USA"
"2651",70032,"New Orleans","false","USA"
"2652",70043,"New Orleans","false","USA"
"2653",70053,"New Orleans","false","USA"
"2654",70056,"New Orleans","false","USA"
"2655",70124,"New Orleans","false","USA"
"2656",70127,"New Orleans","false","USA"
"2657",70131,"New Orleans","false","USA"
"2658",70072,"New Orleans","false","USA"
"2659",70116,"New Orleans","false","USA"
"2660",70117,"New Orleans","false","USA"
"2661",70094,"New Orleans","false","USA"
"2662",70119,"New Orleans","false","USA"
"2663",70112,"New Orleans","true","USA"
"2664",44101,"Cleveland","false","USA"
"2665",44121,"Cleveland","false","USA"
"2666",44126,"Cleveland","false","USA"
"2667",44107,"Cleveland","false","USA"
"2668",44102,"Cleveland","false","USA"
"2669",44108,"Cleveland","false","USA"
"2670",44110,"Cleveland","false","USA"
"2671",44134,"Cleveland","false","USA"
"2672",44130,"Cleveland","false","USA"
"2673",44106,"Cleveland","false","USA"
"2674",44120,"Cleveland","false","USA"
"2675",44119,"Cleveland","false","USA"
"2676",44113,"Cleveland","false","USA"
"2677",44109,"Cleveland","false","USA"
"2678",44114,"Cleveland","true","USA"
"2679",44104,"Cleveland","false","USA"
"2680",44137,"Cleveland","false","USA"
"2681",44115,"Cleveland","false","USA"
"2682",44127,"Cleveland","false","USA"
"2683",44128,"Cleveland","false","USA"
"2684",44118,"Cleveland","false","USA"
"2685",44122,"Cleveland","false","USA"
"2686",44125,"Cleveland","false","USA"
"2687",44105,"Cleveland","false","USA"
"2688",44117,"Cleveland","false","USA"
"2689",44111,"Cleveland","false","USA"
"2690",44112,"Cleveland","false","USA"
"2691",44142,"Cleveland","false","USA"
"2692",44103,"Cleveland","false","USA"
"2693",44131,"Cleveland","false","USA"
"2694",44135,"Cleveland","false","USA"
"2695",44144,"Cleveland","false","USA"
"2696",44129,"Cleveland","false","USA"
"2697",96853,"Honolulu","false","USA"
"2698",96815,"Honolulu","false","USA"
"2699",96860,"Honolulu","false","USA"
"2700",96859,"Honolulu","false","USA"
"2701",96850,"Honolulu","false","USA"
"2702",96821,"Honolulu","false","USA"
"2703",96814,"Honolulu","false","USA"
"2704",96816,"Honolulu","false","USA"
"2705",96734,"Honolulu","false","USA"
"2706",96795,"Honolulu","false","USA"
"2707",96813,"Honolulu","true","USA"
"2708",96819,"Honolulu","false","USA"
"2709",96701,"Honolulu","false","USA"
"2710",96817,"Honolulu","false","USA"
"2711",96818,"Honolulu","false","USA"
"2712",96744,"Honolulu","false","USA"
"2713",96826,"Honolulu","false","USA"
"2714",96822,"Honolulu","false","USA"
"2715",45229,"Cincinnati","false","USA"
"2716",45051,"Cincinnati","false","USA"
"2717",45213,"Cincinnati","false","USA"
"2718",45216,"Cincinnati","false","USA"
"2719",45230,"Cincinnati","false","USA"
"2720",45206,"Cincinnati","false","USA"
"2721",45243,"Cincinnati","false","USA"
"2722",45226,"Cincinnati","false","USA"
"2723",45214,"Cincinnati","false","USA"
"2724",41048,"Cincinnati","false","USA"
"2725",45232,"Cincinnati","false","USA"
"2726",45239,"Cincinnati","false","USA"
"2727",45223,"Cincinnati","false","USA"
"2728",45002,"Cincinnati","false","USA"
"2729",45231,"Cincinnati","false","USA"
"2730",45203,"Cincinnati","false","USA"
"2731",45208,"Cincinnati","false","USA"
"2732",41075,"Cincinnati","false","USA"
"2733",45236,"Cincinnati","false","USA"
"2734",45212,"Cincinnati","false","USA"
"2735",41076,"Cincinnati","false","USA"
"2736",41074,"Cincinnati","false","USA"
"2737",41011,"Cincinnati","false","USA"
"2738",45211,"Cincinnati","false","USA"
"2739",45224,"Cincinnati","false","USA"
"2740",45238,"Cincinnati","false","USA"
"2741",45225,"Cincinnati","false","USA"
"2742",45237,"Cincinnati","false","USA"
"2743",45052,"Cincinnati","false","USA"
"2744",45209,"Cincinnati","false","USA"
"2745",45219,"Cincinnati","false","USA"
"2746",45220,"Cincinnati","false","USA"
"2747",45217,"Cincinnati","false","USA"
"2748",45215,"Cincinnati","false","USA"
"2749",45204,"Cincinnati","false","USA"
"2750",45202,"Cincinnati","true","USA"
"2751",45227,"Cincinnati","false","USA"
"2752",45233,"Cincinnati","false","USA"
"2753",45001,"Cincinnati","false","USA"
"2754",45248,"Cincinnati","false","USA"
"2755",45205,"Cincinnati","false","USA"
"2756",45207,"Cincinnati","false","USA"
"2757",41017,"Cincinnati","false","USA"
"2758",45244,"Cincinnati","false","USA"
"2759",15219,"Pittsburgh","true","USA"
"2760",15260,"Pittsburgh","false","USA"
"2761",15211,"Pittsburgh","false","USA"
"2762",15290,"Pittsburgh","false","USA"
"2763",15232,"Pittsburgh","false","USA"
"2764",15233,"Pittsburgh","false","USA"
"2765",15216,"Pittsburgh","false","USA"
"2766",15222,"Pittsburgh","true","USA"
"2767",15205,"Pittsburgh","false","USA"
"2768",15202,"Pittsburgh","false","USA"
"2769",15214,"Pittsburgh","false","USA"
"2770",15221,"Pittsburgh","false","USA"
"2771",15227,"Pittsburgh","false","USA"
"2772",15238,"Pittsburgh","false","USA"
"2773",15237,"Pittsburgh","false","USA"
"2774",15229,"Pittsburgh","false","USA"
"2775",15210,"Pittsburgh","false","USA"
"2776",15147,"Pittsburgh","false","USA"
"2777",15106,"Pittsburgh","false","USA"
"2778",15226,"Pittsburgh","false","USA"
"2779",15218,"Pittsburgh","false","USA"
"2780",15120,"Pittsburgh","false","USA"
"2781",15217,"Pittsburgh","false","USA"
"2782",15122,"Pittsburgh","false","USA"
"2783",15136,"Pittsburgh","false","USA"
"2784",15204,"Pittsburgh","false","USA"
"2785",15236,"Pittsburgh","false","USA"
"2786",15234,"Pittsburgh","false","USA"
"2787",15223,"Pittsburgh","false","USA"
"2788",15201,"Pittsburgh","false","USA"
"2789",15224,"Pittsburgh","false","USA"
"2790",15235,"Pittsburgh","false","USA"
"2791",15215,"Pittsburgh","false","USA"
"2792",15213,"Pittsburgh","false","USA"
"2793",15220,"Pittsburgh","false","USA"
"2794",15207,"Pittsburgh","false","USA"
"2795",15209,"Pittsburgh","false","USA"
"2796",15208,"Pittsburgh","false","USA"
"2797",15212,"Pittsburgh","false","USA"
"2798",15203,"Pittsburgh","false","USA"
"2799",15206,"Pittsburgh","false","USA"
"2800",84054,"Salt Lake City","false","USA"
"2801",84112,"Salt Lake City","false","USA"
"2802",84180,"Salt Lake City","false","USA"
"2803",84105,"Salt Lake City","false","USA"
"2804",84106,"Salt Lake City","false","USA"
"2805",84111,"Salt Lake City","true","USA"
"2806",84010,"Salt Lake City","false","USA"
"2807",84144,"Salt Lake City","false","USA"
"2808",84108,"Salt Lake City","false","USA"
"2809",84115,"Salt Lake City","false","USA"
"2810",84116,"Salt Lake City","false","USA"
"2811",84044,"Salt Lake City","false","USA"
"2812",84101,"Salt Lake City","true","USA"
"2813",84102,"Salt Lake City","false","USA"
"2814",84103,"Salt Lake City","false","USA"
"2815",84104,"Salt Lake City","false","USA"
"2816",84119,"Salt Lake City","false","USA"
"2817",84109,"Salt Lake City","false","USA"
"2818",84128,"Salt Lake City","false","USA"
"2819",84113,"Salt Lake City","false","USA"
"2820",84120,"Salt Lake City","false","USA"
"2821",63117,"St Louis","false","USA"
"2822",63109,"St Louis","false","USA"
"2823",63107,"St Louis","false","USA"
"2824",63139,"St Louis","false","USA"
"2825",63112,"St Louis","false","USA"
"2826",63113,"St Louis","false","USA"
"2827",63104,"St Louis","false","USA"
"2828",63108,"St Louis","false","USA"
"2829",63143,"St Louis","false","USA"
"2830",63155,"St Louis","false","USA"
"2831",63102,"St Louis","false","USA"
"2832",63147,"St Louis","false","USA"
"2833",63115,"St Louis","false","USA"
"2834",63120,"St Louis","false","USA"
"2835",63136,"St Louis","false","USA"
"2836",63105,"St Louis","false","USA"
"2837",62201,"St Louis","false","USA"
"2838",63125,"St Louis","false","USA"
"2839",63123,"St Louis","false","USA"
"2840",63137,"St Louis","false","USA"
"2841",63133,"St Louis","false","USA"
"2842",62040,"St Louis","false","USA"
"2843",63138,"St Louis","false","USA"
"2844",63111,"St Louis","false","USA"
"2845",63110,"St Louis","false","USA"
"2846",63103,"St Louis","false","USA"
"2847",63101,"St Louis","true","USA"
"2848",63106,"St Louis","false","USA"
"2849",63119,"St Louis","false","USA"
"2850",63121,"St Louis","false","USA"
"2851",63130,"St Louis","false","USA"
"2852",63118,"St Louis","false","USA"
"2853",63116,"St Louis","false","USA"
"2854",32808,"Orlando","false","USA"
"2855",32814,"Orlando","false","USA"
"2856",32806,"Orlando","false","USA"
"2857",32832,"Orlando","false","USA"
"2858",32801,"Orlando","true","USA"
"2859",32807,"Orlando","false","USA"
"2860",32811,"Orlando","false","USA"
"2861",32824,"Orlando","false","USA"
"2862",32822,"Orlando","false","USA"
"2863",34786,"Orlando","false","USA"
"2864",34744,"Orlando","false","USA"
"2865",32809,"Orlando","false","USA"
"2866",32805,"Orlando","false","USA"
"2867",32812,"Orlando","false","USA"
"2868",32804,"Orlando","false","USA"
"2869",32829,"Orlando","false","USA"
"2870",32835,"Orlando","false","USA"
"2871",32825,"Orlando","false","USA"
"2872",32819,"Orlando","false","USA"
"2873",32810,"Orlando","false","USA"
"2874",32789,"Orlando","false","USA"
"2875",32803,"Orlando","false","USA"
"2876",32827,"Orlando","false","USA"
"2877",32839,"Orlando","false","USA"
"2878",34771,"Orlando","false","USA"
"2879",32792,"Orlando","false","USA"
